<?xml version='1.0' encoding='UTF-8'?>
<gpx version="1.1" creator="https://www.komoot.de" xmlns="http://www.topografix.com/GPX/1/1" xmlns:xsi="http://www.w3.org/2001/XMLSchema-instance" xsi:schemaLocation="http://www.topografix.com/GPX/1/1 http://www.topografix.com/GPX/1/1/gpx.xsd">
  <metadata>
    <name>35차 46구간 한계령 희운각대피소 (2026/08/22)</name>
    <author>
      <link href="https://www.komoot.de">
        <text>komoot</text>
        <type>text/html</type>
      </link>
    </author>
  </metadata>
  <trk>
    <name>35차 46구간 한계령 희운각대피소 (2026/08/22)</name>
    <type>hike</type>
    <trkseg>
      <trkpt lat="38.097378" lon="128.406275">
        <ele>942.185886</ele>
        <time>2026-08-02T13:12:07.550Z</time>
      </trkpt>
      <trkpt lat="38.097477" lon="128.406315">
        <ele>942.185886</ele>
        <time>2026-08-02T13:12:22.680Z</time>
      </trkpt>
      <trkpt lat="38.097585" lon="128.406144">
        <ele>942.185886</ele>
        <time>2026-08-02T13:12:49.798Z</time>
      </trkpt>
      <trkpt lat="38.097785" lon="128.406013">
        <ele>942.185886</ele>
        <time>2026-08-02T13:13:30.170Z</time>
      </trkpt>
      <trkpt lat="38.097864" lon="128.406165">
        <ele>942.185886</ele>
        <time>2026-08-02T13:13:58.693Z</time>
      </trkpt>
      <trkpt lat="38.097918" lon="128.406414">
        <ele>942.185886</ele>
        <time>2026-08-02T13:14:43.832Z</time>
      </trkpt>
      <trkpt lat="38.097980" lon="128.406503">
        <ele>943.701586</ele>
        <time>2026-08-02T13:15:05.930Z</time>
      </trkpt>
      <trkpt lat="38.098007" lon="128.406690">
        <ele>949.067231</ele>
        <time>2026-08-02T13:15:44.194Z</time>
      </trkpt>
      <trkpt lat="38.098070" lon="128.406913">
        <ele>955.754037</ele>
        <time>2026-08-02T13:16:34.982Z</time>
      </trkpt>
      <trkpt lat="38.098197" lon="128.406996">
        <ele>960.875638</ele>
        <time>2026-08-02T13:17:15.268Z</time>
      </trkpt>
      <trkpt lat="38.098372" lon="128.407361">
        <ele>972.937948</ele>
        <time>2026-08-02T13:18:55.376Z</time>
      </trkpt>
      <trkpt lat="38.098395" lon="128.407559">
        <ele>978.586465</ele>
        <time>2026-08-02T13:19:44.843Z</time>
      </trkpt>
      <trkpt lat="38.098469" lon="128.407766">
        <ele>985.002952</ele>
        <time>2026-08-02T13:20:42.613Z</time>
      </trkpt>
      <trkpt lat="38.098587" lon="128.407854">
        <ele>989.909666</ele>
        <time>2026-08-02T13:21:27.770Z</time>
      </trkpt>
      <trkpt lat="38.098693" lon="128.407988">
        <ele>995.271792</ele>
        <time>2026-08-02T13:22:17.339Z</time>
      </trkpt>
      <trkpt lat="38.098731" lon="128.408179">
        <ele>1000.831779</ele>
        <time>2026-08-02T13:23:09.043Z</time>
      </trkpt>
      <trkpt lat="38.098963" lon="128.408490">
        <ele>1013.283459</ele>
        <time>2026-08-02T13:25:01.630Z</time>
      </trkpt>
      <trkpt lat="38.099164" lon="128.408557">
        <ele>1021.163389</ele>
        <time>2026-08-02T13:26:09.606Z</time>
      </trkpt>
      <trkpt lat="38.099305" lon="128.408742">
        <ele>1028.848843</ele>
        <time>2026-08-02T13:27:14.437Z</time>
      </trkpt>
      <trkpt lat="38.099402" lon="128.408769">
        <ele>1032.614360</ele>
        <time>2026-08-02T13:27:45.591Z</time>
      </trkpt>
      <trkpt lat="38.099518" lon="128.408965">
        <ele>1039.932768</ele>
        <time>2026-08-02T13:28:44.778Z</time>
      </trkpt>
      <trkpt lat="38.099605" lon="128.409040">
        <ele>1043.919388</ele>
        <time>2026-08-02T13:29:16.384Z</time>
      </trkpt>
      <trkpt lat="38.099759" lon="128.409053">
        <ele>1049.772045</ele>
        <time>2026-08-02T13:30:02.202Z</time>
      </trkpt>
      <trkpt lat="38.099822" lon="128.409185">
        <ele>1054.378927</ele>
        <time>2026-08-02T13:30:37.666Z</time>
      </trkpt>
      <trkpt lat="38.099974" lon="128.409276">
        <ele>1060.750524</ele>
        <time>2026-08-02T13:31:26.415Z</time>
      </trkpt>
      <trkpt lat="38.100054" lon="128.409496">
        <ele>1067.982597</ele>
        <time>2026-08-02T13:32:21.602Z</time>
      </trkpt>
      <trkpt lat="38.100084" lon="128.409861">
        <ele>1079.307964</ele>
        <time>2026-08-02T13:33:45.960Z</time>
      </trkpt>
      <trkpt lat="38.100312" lon="128.410102">
        <ele>1091.595799</ele>
        <time>2026-08-02T13:35:14.230Z</time>
      </trkpt>
      <trkpt lat="38.100396" lon="128.410268">
        <ele>1098.030757</ele>
        <time>2026-08-02T13:36:01.629Z</time>
      </trkpt>
      <trkpt lat="38.100582" lon="128.410284">
        <ele>1105.755066</ele>
        <time>2026-08-02T13:36:59.759Z</time>
      </trkpt>
      <trkpt lat="38.100704" lon="128.410386">
        <ele>1111.805912</ele>
        <time>2026-08-02T13:37:46.685Z</time>
      </trkpt>
      <trkpt lat="38.101293" lon="128.410574">
        <ele>1136.968421</ele>
        <time>2026-08-02T13:41:14.124Z</time>
      </trkpt>
      <trkpt lat="38.101340" lon="128.410606">
        <ele>1139.177700</ele>
        <time>2026-08-02T13:41:33.218Z</time>
      </trkpt>
      <trkpt lat="38.101382" lon="128.410751">
        <ele>1144.215535</ele>
        <time>2026-08-02T13:42:17.405Z</time>
      </trkpt>
      <trkpt lat="38.101494" lon="128.410808">
        <ele>1149.214427</ele>
        <time>2026-08-02T13:43:01.815Z</time>
      </trkpt>
      <trkpt lat="38.101591" lon="128.410794">
        <ele>1153.452152</ele>
        <time>2026-08-02T13:43:38.169Z</time>
      </trkpt>
      <trkpt lat="38.101783" lon="128.411003">
        <ele>1164.453067</ele>
        <time>2026-08-02T13:45:12.821Z</time>
      </trkpt>
      <trkpt lat="38.101973" lon="128.410936">
        <ele>1173.033242</ele>
        <time>2026-08-02T13:46:26.562Z</time>
      </trkpt>
      <trkpt lat="38.102072" lon="128.411065">
        <ele>1179.203359</ele>
        <time>2026-08-02T13:47:19.215Z</time>
      </trkpt>
      <trkpt lat="38.102180" lon="128.411030">
        <ele>1184.053339</ele>
        <time>2026-08-02T13:48:00.025Z</time>
      </trkpt>
      <trkpt lat="38.102284" lon="128.411105">
        <ele>1189.256769</ele>
        <time>2026-08-02T13:48:43.698Z</time>
      </trkpt>
      <trkpt lat="38.102394" lon="128.411143">
        <ele>1194.217076</ele>
        <time>2026-08-02T13:49:24.407Z</time>
      </trkpt>
      <trkpt lat="38.102461" lon="128.411234">
        <ele>1198.484344</ele>
        <time>2026-08-02T13:49:58.932Z</time>
      </trkpt>
      <trkpt lat="38.102618" lon="128.411186">
        <ele>1205.511059</ele>
        <time>2026-08-02T13:50:54.611Z</time>
      </trkpt>
      <trkpt lat="38.102710" lon="128.411329">
        <ele>1211.835873</ele>
        <time>2026-08-02T13:51:43.085Z</time>
      </trkpt>
      <trkpt lat="38.102759" lon="128.411370">
        <ele>1214.388775</ele>
        <time>2026-08-02T13:52:02.143Z</time>
      </trkpt>
      <trkpt lat="38.102856" lon="128.411386">
        <ele>1218.645093</ele>
        <time>2026-08-02T13:52:33.318Z</time>
      </trkpt>
      <trkpt lat="38.102940" lon="128.411528">
        <ele>1224.728094</ele>
        <time>2026-08-02T13:53:15.938Z</time>
      </trkpt>
      <trkpt lat="38.103170" lon="128.411752">
        <ele>1231.259588</ele>
        <time>2026-08-02T13:54:37.201Z</time>
      </trkpt>
      <trkpt lat="38.103415" lon="128.411907">
        <ele>1235.668233</ele>
        <time>2026-08-02T13:55:44.148Z</time>
      </trkpt>
      <trkpt lat="38.103461" lon="128.412057">
        <ele>1237.708903</ele>
        <time>2026-08-02T13:56:11.712Z</time>
      </trkpt>
      <trkpt lat="38.103649" lon="128.412251">
        <ele>1241.610011</ele>
        <time>2026-08-02T13:56:57.753Z</time>
      </trkpt>
      <trkpt lat="38.103854" lon="128.412173">
        <ele>1245.057125</ele>
        <time>2026-08-02T13:57:31.072Z</time>
      </trkpt>
      <trkpt lat="38.104162" lon="128.412275">
        <ele>1250.184293</ele>
        <time>2026-08-02T13:58:12.554Z</time>
      </trkpt>
      <trkpt lat="38.104329" lon="128.412398">
        <ele>1253.293592</ele>
        <time>2026-08-02T13:58:35.155Z</time>
      </trkpt>
      <trkpt lat="38.104561" lon="128.412433">
        <ele>1256.382531</ele>
        <time>2026-08-02T13:58:58.966Z</time>
      </trkpt>
      <trkpt lat="38.104935" lon="128.412347">
        <ele>1252.082018</ele>
        <time>2026-08-02T13:59:41.736Z</time>
      </trkpt>
      <trkpt lat="38.105074" lon="128.412243">
        <ele>1250.256901</ele>
        <time>2026-08-02T14:00:01.082Z</time>
      </trkpt>
      <trkpt lat="38.105104" lon="128.412076">
        <ele>1248.731758</ele>
        <time>2026-08-02T14:00:17.659Z</time>
      </trkpt>
      <trkpt lat="38.105139" lon="128.411972">
        <ele>1247.724659</ele>
        <time>2026-08-02T14:00:28.839Z</time>
      </trkpt>
      <trkpt lat="38.105095" lon="128.411805">
        <ele>1246.156636</ele>
        <time>2026-08-02T14:00:46.491Z</time>
      </trkpt>
      <trkpt lat="38.105171" lon="128.411698">
        <ele>1244.873248</ele>
        <time>2026-08-02T14:01:01.252Z</time>
      </trkpt>
      <trkpt lat="38.105354" lon="128.411497">
        <ele>1242.136421</ele>
        <time>2026-08-02T14:01:33.104Z</time>
      </trkpt>
      <trkpt lat="38.105561" lon="128.411430">
        <ele>1239.719452</ele>
        <time>2026-08-02T14:02:01.624Z</time>
      </trkpt>
      <trkpt lat="38.105736" lon="128.411315">
        <ele>1237.490273</ele>
        <time>2026-08-02T14:02:28.113Z</time>
      </trkpt>
      <trkpt lat="38.106030" lon="128.411376">
        <ele>1235.261959</ele>
        <time>2026-08-02T14:03:08.763Z</time>
      </trkpt>
      <trkpt lat="38.106150" lon="128.411465">
        <ele>1234.510025</ele>
        <time>2026-08-02T14:03:27.396Z</time>
      </trkpt>
      <trkpt lat="38.106201" lon="128.411623">
        <ele>1233.782774</ele>
        <time>2026-08-02T14:03:44.835Z</time>
      </trkpt>
      <trkpt lat="38.106243" lon="128.411937">
        <ele>1232.426431</ele>
        <time>2026-08-02T14:04:15.964Z</time>
      </trkpt>
      <trkpt lat="38.106333" lon="128.411990">
        <ele>1231.889607</ele>
        <time>2026-08-02T14:04:27.895Z</time>
      </trkpt>
      <trkpt lat="38.106462" lon="128.412125">
        <ele>1230.985229</ele>
        <time>2026-08-02T14:04:46.986Z</time>
      </trkpt>
      <trkpt lat="38.106627" lon="128.412098">
        <ele>1230.084888</ele>
        <time>2026-08-02T14:05:05.045Z</time>
      </trkpt>
      <trkpt lat="38.106804" lon="128.412135">
        <ele>1229.114105</ele>
        <time>2026-08-02T14:05:23.471Z</time>
      </trkpt>
      <trkpt lat="38.107051" lon="128.412071">
        <ele>1227.749858</ele>
        <time>2026-08-02T14:05:51.210Z</time>
      </trkpt>
      <trkpt lat="38.107146" lon="128.411926">
        <ele>1226.946363</ele>
        <time>2026-08-02T14:06:09.445Z</time>
      </trkpt>
      <trkpt lat="38.107228" lon="128.411711">
        <ele>1228.444006</ele>
        <time>2026-08-02T14:06:34.346Z</time>
      </trkpt>
      <trkpt lat="38.107338" lon="128.411634">
        <ele>1230.409609</ele>
        <time>2026-08-02T14:06:52.654Z</time>
      </trkpt>
      <trkpt lat="38.107577" lon="128.411580">
        <ele>1234.209075</ele>
        <time>2026-08-02T14:07:32.651Z</time>
      </trkpt>
      <trkpt lat="38.107705" lon="128.411400">
        <ele>1237.197078</ele>
        <time>2026-08-02T14:08:07.587Z</time>
      </trkpt>
      <trkpt lat="38.107819" lon="128.411164">
        <ele>1240.607593</ele>
        <time>2026-08-02T14:08:50.075Z</time>
      </trkpt>
      <trkpt lat="38.107930" lon="128.410999">
        <ele>1243.281136</ele>
        <time>2026-08-02T14:09:24.201Z</time>
      </trkpt>
      <trkpt lat="38.108183" lon="128.410916">
        <ele>1247.370878</ele>
        <time>2026-08-02T14:10:16.632Z</time>
      </trkpt>
      <trkpt lat="38.108235" lon="128.410770">
        <ele>1249.344592</ele>
        <time>2026-08-02T14:10:41.547Z</time>
      </trkpt>
      <trkpt lat="38.108425" lon="128.410684">
        <ele>1252.501435</ele>
        <time>2026-08-02T14:11:19.974Z</time>
      </trkpt>
      <trkpt lat="38.108607" lon="128.410486">
        <ele>1256.069937</ele>
        <time>2026-08-02T14:12:02.571Z</time>
      </trkpt>
      <trkpt lat="38.108675" lon="128.410447">
        <ele>1257.098701</ele>
        <time>2026-08-02T14:12:15.263Z</time>
      </trkpt>
      <trkpt lat="38.109173" lon="128.410366">
        <ele>1264.022011</ele>
        <time>2026-08-02T14:13:30.742Z</time>
      </trkpt>
      <trkpt lat="38.109301" lon="128.410403">
        <ele>1265.832180</ele>
        <time>2026-08-02T14:13:48.492Z</time>
      </trkpt>
      <trkpt lat="38.109668" lon="128.410361">
        <ele>1270.913497</ele>
        <time>2026-08-02T14:14:37.687Z</time>
      </trkpt>
      <trkpt lat="38.109814" lon="128.410287">
        <ele>1273.080999</ele>
        <time>2026-08-02T14:14:58.896Z</time>
      </trkpt>
      <trkpt lat="38.109975" lon="128.410113">
        <ele>1275.995335</ele>
        <time>2026-08-02T14:15:29.030Z</time>
      </trkpt>
      <trkpt lat="38.110094" lon="128.410059">
        <ele>1277.737778</ele>
        <time>2026-08-02T14:15:48.290Z</time>
      </trkpt>
      <trkpt lat="38.110453" lon="128.410027">
        <ele>1284.568188</ele>
        <time>2026-08-02T14:16:50.149Z</time>
      </trkpt>
      <trkpt lat="38.110584" lon="128.409837">
        <ele>1288.924033</ele>
        <time>2026-08-02T14:17:29.529Z</time>
      </trkpt>
      <trkpt lat="38.110648" lon="128.409803">
        <ele>1290.444112</ele>
        <time>2026-08-02T14:17:44.124Z</time>
      </trkpt>
      <trkpt lat="38.110664" lon="128.409850">
        <ele>1291.327096</ele>
        <time>2026-08-02T14:17:52.714Z</time>
      </trkpt>
      <trkpt lat="38.110775" lon="128.409855">
        <ele>1293.761059</ele>
        <time>2026-08-02T14:18:17.326Z</time>
      </trkpt>
      <trkpt lat="38.110792" lon="128.409968">
        <ele>1295.744725</ele>
        <time>2026-08-02T14:18:38.070Z</time>
      </trkpt>
      <trkpt lat="38.110971" lon="128.410018">
        <ele>1299.760923</ele>
        <time>2026-08-02T14:19:21.645Z</time>
      </trkpt>
      <trkpt lat="38.111028" lon="128.410014">
        <ele>1301.011914</ele>
        <time>2026-08-02T14:19:35.520Z</time>
      </trkpt>
      <trkpt lat="38.111178" lon="128.409912">
        <ele>1304.739901</ele>
        <time>2026-08-02T14:20:17.210Z</time>
      </trkpt>
      <trkpt lat="38.111269" lon="128.409914">
        <ele>1306.734359</ele>
        <time>2026-08-02T14:20:39.556Z</time>
      </trkpt>
      <trkpt lat="38.111412" lon="128.409843">
        <ele>1310.098668</ele>
        <time>2026-08-02T14:21:16.790Z</time>
      </trkpt>
      <trkpt lat="38.111717" lon="128.410231">
        <ele>1319.148730</ele>
        <time>2026-08-02T14:22:54.941Z</time>
      </trkpt>
      <trkpt lat="38.111932" lon="128.410214">
        <ele>1320.722773</ele>
        <time>2026-08-02T14:23:38.418Z</time>
      </trkpt>
      <trkpt lat="38.112039" lon="128.410285">
        <ele>1321.604765</ele>
        <time>2026-08-02T14:24:00.868Z</time>
      </trkpt>
      <trkpt lat="38.111980" lon="128.410372">
        <ele>1322.265097</ele>
        <time>2026-08-02T14:24:16.188Z</time>
      </trkpt>
      <trkpt lat="38.111969" lon="128.410558">
        <ele>1323.337463</ele>
        <time>2026-08-02T14:24:39.237Z</time>
      </trkpt>
      <trkpt lat="38.111893" lon="128.410831">
        <ele>1325.002341</ele>
        <time>2026-08-02T14:25:09.886Z</time>
      </trkpt>
      <trkpt lat="38.111812" lon="128.411269">
        <ele>1327.589113</ele>
        <time>2026-08-02T14:25:50.833Z</time>
      </trkpt>
      <trkpt lat="38.111879" lon="128.411406">
        <ele>1328.516506</ele>
        <time>2026-08-02T14:26:03.612Z</time>
      </trkpt>
      <trkpt lat="38.111860" lon="128.411697">
        <ele>1330.195274</ele>
        <time>2026-08-02T14:26:28.012Z</time>
      </trkpt>
      <trkpt lat="38.111800" lon="128.411998">
        <ele>1331.980457</ele>
        <time>2026-08-02T14:26:55.146Z</time>
      </trkpt>
      <trkpt lat="38.111719" lon="128.412235">
        <ele>1330.327524</ele>
        <time>2026-08-02T14:27:18.361Z</time>
      </trkpt>
      <trkpt lat="38.111632" lon="128.412739">
        <ele>1326.537378</ele>
        <time>2026-08-02T14:28:06.285Z</time>
      </trkpt>
      <trkpt lat="38.111690" lon="128.413055">
        <ele>1324.153902</ele>
        <time>2026-08-02T14:28:37.060Z</time>
      </trkpt>
      <trkpt lat="38.111660" lon="128.413176">
        <ele>1323.222022</ele>
        <time>2026-08-02T14:28:49.116Z</time>
      </trkpt>
      <trkpt lat="38.111711" lon="128.413274">
        <ele>1322.358959</ele>
        <time>2026-08-02T14:29:00.270Z</time>
      </trkpt>
      <trkpt lat="38.111557" lon="128.413578">
        <ele>1319.703149</ele>
        <time>2026-08-02T14:29:34.887Z</time>
      </trkpt>
      <trkpt lat="38.111413" lon="128.414241">
        <ele>1314.858402</ele>
        <time>2026-08-02T14:30:40.804Z</time>
      </trkpt>
      <trkpt lat="38.111084" lon="128.414911">
        <ele>1310.921474</ele>
        <time>2026-08-02T14:31:56.098Z</time>
      </trkpt>
      <trkpt lat="38.111055" lon="128.415818">
        <ele>1306.396446</ele>
        <time>2026-08-02T14:33:18.500Z</time>
      </trkpt>
      <trkpt lat="38.111253" lon="128.416555">
        <ele>1306.246964</ele>
        <time>2026-08-02T14:34:19.902Z</time>
      </trkpt>
      <trkpt lat="38.111278" lon="128.416865">
        <ele>1308.874764</ele>
        <time>2026-08-02T14:34:49.708Z</time>
      </trkpt>
      <trkpt lat="38.111143" lon="128.417371">
        <ele>1313.380292</ele>
        <time>2026-08-02T14:35:47.304Z</time>
      </trkpt>
      <trkpt lat="38.111238" lon="128.417706">
        <ele>1316.383095</ele>
        <time>2026-08-02T14:36:32.375Z</time>
      </trkpt>
      <trkpt lat="38.111259" lon="128.417929">
        <ele>1318.276985</ele>
        <time>2026-08-02T14:37:02.781Z</time>
      </trkpt>
      <trkpt lat="38.111396" lon="128.418051">
        <ele>1320.069815</ele>
        <time>2026-08-02T14:37:32.673Z</time>
      </trkpt>
      <trkpt lat="38.111268" lon="128.418264">
        <ele>1322.329911</ele>
        <time>2026-08-02T14:38:11.451Z</time>
      </trkpt>
      <trkpt lat="38.111143" lon="128.418350">
        <ele>1323.903629</ele>
        <time>2026-08-02T14:38:37.297Z</time>
      </trkpt>
      <trkpt lat="38.110934" lon="128.418616">
        <ele>1327.309911</ele>
        <time>2026-08-02T14:39:29.992Z</time>
      </trkpt>
      <trkpt lat="38.110765" lon="128.419088">
        <ele>1332.008846</ele>
        <time>2026-08-02T14:40:36.117Z</time>
      </trkpt>
      <trkpt lat="38.110658" lon="128.419222">
        <ele>1333.738803</ele>
        <time>2026-08-02T14:40:57.872Z</time>
      </trkpt>
      <trkpt lat="38.110637" lon="128.419577">
        <ele>1336.964642</ele>
        <time>2026-08-02T14:41:35.605Z</time>
      </trkpt>
      <trkpt lat="38.110657" lon="128.420075">
        <ele>1341.483043</ele>
        <time>2026-08-02T14:42:25.469Z</time>
      </trkpt>
      <trkpt lat="38.110400" lon="128.420976">
        <ele>1346.488418</ele>
        <time>2026-08-02T14:43:54.316Z</time>
      </trkpt>
      <trkpt lat="38.110144" lon="128.421422">
        <ele>1348.558375</ele>
        <time>2026-08-02T14:44:42.639Z</time>
      </trkpt>
      <trkpt lat="38.110185" lon="128.421571">
        <ele>1349.150229</ele>
        <time>2026-08-02T14:44:56.281Z</time>
      </trkpt>
      <trkpt lat="38.110278" lon="128.421657">
        <ele>1349.698302</ele>
        <time>2026-08-02T14:45:08.938Z</time>
      </trkpt>
      <trkpt lat="38.110213" lon="128.422180">
        <ele>1351.683599</ele>
        <time>2026-08-02T14:45:55.824Z</time>
      </trkpt>
      <trkpt lat="38.110221" lon="128.422526">
        <ele>1353.983638</ele>
        <time>2026-08-02T14:46:28.004Z</time>
      </trkpt>
      <trkpt lat="38.110145" lon="128.422810">
        <ele>1357.281644</ele>
        <time>2026-08-02T14:46:57.541Z</time>
      </trkpt>
      <trkpt lat="38.110151" lon="128.423214">
        <ele>1361.724103</ele>
        <time>2026-08-02T14:47:39.844Z</time>
      </trkpt>
      <trkpt lat="38.109987" lon="128.423425">
        <ele>1364.984872</ele>
        <time>2026-08-02T14:48:14.411Z</time>
      </trkpt>
      <trkpt lat="38.109921" lon="128.423680">
        <ele>1367.936191</ele>
        <time>2026-08-02T14:48:49.194Z</time>
      </trkpt>
      <trkpt lat="38.109848" lon="128.424487">
        <ele>1376.867006</ele>
        <time>2026-08-02T14:50:54.485Z</time>
      </trkpt>
      <trkpt lat="38.109881" lon="128.424718">
        <ele>1379.925352</ele>
        <time>2026-08-02T14:51:35.039Z</time>
      </trkpt>
      <trkpt lat="38.109822" lon="128.424986">
        <ele>1383.772771</ele>
        <time>2026-08-02T14:52:23.057Z</time>
      </trkpt>
      <trkpt lat="38.109858" lon="128.425637">
        <ele>1392.795109</ele>
        <time>2026-08-02T14:54:12.194Z</time>
      </trkpt>
      <trkpt lat="38.109983" lon="128.425949">
        <ele>1397.635512</ele>
        <time>2026-08-02T14:55:05.724Z</time>
      </trkpt>
      <trkpt lat="38.109960" lon="128.426003">
        <ele>1398.484429</ele>
        <time>2026-08-02T14:55:14.739Z</time>
      </trkpt>
      <trkpt lat="38.109766" lon="128.426186">
        <ele>1402.729442</ele>
        <time>2026-08-02T14:55:56.449Z</time>
      </trkpt>
      <trkpt lat="38.109681" lon="128.426410">
        <ele>1406.167594</ele>
        <time>2026-08-02T14:56:26.313Z</time>
      </trkpt>
      <trkpt lat="38.109708" lon="128.426619">
        <ele>1409.095731</ele>
        <time>2026-08-02T14:56:48.918Z</time>
      </trkpt>
      <trkpt lat="38.109651" lon="128.426735">
        <ele>1409.328287</ele>
        <time>2026-08-02T14:57:02.831Z</time>
      </trkpt>
      <trkpt lat="38.109442" lon="128.426877">
        <ele>1409.630796</ele>
        <time>2026-08-02T14:57:31.507Z</time>
      </trkpt>
      <trkpt lat="38.109327" lon="128.427156">
        <ele>1409.947134</ele>
        <time>2026-08-02T14:57:59.078Z</time>
      </trkpt>
      <trkpt lat="38.109276" lon="128.427359">
        <ele>1410.161160</ele>
        <time>2026-08-02T14:58:16.731Z</time>
      </trkpt>
      <trkpt lat="38.109383" lon="128.428220">
        <ele>1411.036635</ele>
        <time>2026-08-02T14:59:27.478Z</time>
      </trkpt>
      <trkpt lat="38.109504" lon="128.428545">
        <ele>1411.397749</ele>
        <time>2026-08-02T14:59:57.983Z</time>
      </trkpt>
      <trkpt lat="38.109674" lon="128.429629">
        <ele>1406.281500</ele>
        <time>2026-08-02T15:01:34.060Z</time>
      </trkpt>
      <trkpt lat="38.109554" lon="128.429712">
        <ele>1405.384648</ele>
        <time>2026-08-02T15:01:49.466Z</time>
      </trkpt>
      <trkpt lat="38.109685" lon="128.430003">
        <ele>1403.652954</ele>
        <time>2026-08-02T15:02:19.409Z</time>
      </trkpt>
      <trkpt lat="38.109915" lon="128.430154">
        <ele>1401.953553</ele>
        <time>2026-08-02T15:02:49.108Z</time>
      </trkpt>
      <trkpt lat="38.110022" lon="128.430426">
        <ele>1400.382818</ele>
        <time>2026-08-02T15:03:16.850Z</time>
      </trkpt>
      <trkpt lat="38.110236" lon="128.431554">
        <ele>1390.382255</ele>
        <time>2026-08-02T15:05:08.076Z</time>
      </trkpt>
      <trkpt lat="38.110400" lon="128.431877">
        <ele>1386.894714</ele>
        <time>2026-08-02T15:05:46.492Z</time>
      </trkpt>
      <trkpt lat="38.110522" lon="128.432495">
        <ele>1381.114216</ele>
        <time>2026-08-02T15:06:50.112Z</time>
      </trkpt>
      <trkpt lat="38.110449" lon="128.433220">
        <ele>1378.962013</ele>
        <time>2026-08-02T15:08:00.271Z</time>
      </trkpt>
      <trkpt lat="38.110514" lon="128.433743">
        <ele>1378.977185</ele>
        <time>2026-08-02T15:08:46.460Z</time>
      </trkpt>
      <trkpt lat="38.110704" lon="128.434254">
        <ele>1378.993380</ele>
        <time>2026-08-02T15:09:31.758Z</time>
      </trkpt>
      <trkpt lat="38.111393" lon="128.435550">
        <ele>1390.971118</ele>
        <time>2026-08-02T15:12:30.265Z</time>
      </trkpt>
      <trkpt lat="38.111499" lon="128.435705">
        <ele>1393.810243</ele>
        <time>2026-08-02T15:13:02.420Z</time>
      </trkpt>
      <trkpt lat="38.111720" lon="128.436176">
        <ele>1401.391645</ele>
        <time>2026-08-02T15:14:31.785Z</time>
      </trkpt>
      <trkpt lat="38.111766" lon="128.436323">
        <ele>1403.578709</ele>
        <time>2026-08-02T15:14:58.555Z</time>
      </trkpt>
      <trkpt lat="38.111745" lon="128.436423">
        <ele>1405.009576</ele>
        <time>2026-08-02T15:15:16.103Z</time>
      </trkpt>
      <trkpt lat="38.111811" lon="128.436533">
        <ele>1406.922010</ele>
        <time>2026-08-02T15:15:40.038Z</time>
      </trkpt>
      <trkpt lat="38.111911" lon="128.436565">
        <ele>1408.733911</ele>
        <time>2026-08-02T15:16:02.844Z</time>
      </trkpt>
      <trkpt lat="38.111974" lon="128.436673">
        <ele>1410.592563</ele>
        <time>2026-08-02T15:16:25.611Z</time>
      </trkpt>
      <trkpt lat="38.111981" lon="128.436855">
        <ele>1412.131846</ele>
        <time>2026-08-02T15:16:55.709Z</time>
      </trkpt>
      <trkpt lat="38.111956" lon="128.437131">
        <ele>1414.464289</ele>
        <time>2026-08-02T15:17:39.128Z</time>
      </trkpt>
      <trkpt lat="38.112047" lon="128.437416">
        <ele>1417.046503</ele>
        <time>2026-08-02T15:18:22.726Z</time>
      </trkpt>
      <trkpt lat="38.112157" lon="128.437451">
        <ele>1418.256454</ele>
        <time>2026-08-02T15:18:41.441Z</time>
      </trkpt>
      <trkpt lat="38.112228" lon="128.437520">
        <ele>1419.210137</ele>
        <time>2026-08-02T15:18:55.090Z</time>
      </trkpt>
      <trkpt lat="38.112420" lon="128.437601">
        <ele>1421.368741</ele>
        <time>2026-08-02T15:19:22.777Z</time>
      </trkpt>
      <trkpt lat="38.113000" lon="128.438108">
        <ele>1428.879930</ele>
        <time>2026-08-02T15:20:43.983Z</time>
      </trkpt>
      <trkpt lat="38.113142" lon="128.438580">
        <ele>1429.514477</ele>
        <time>2026-08-02T15:21:25.335Z</time>
      </trkpt>
      <trkpt lat="38.113419" lon="128.439035">
        <ele>1429.085577</ele>
        <time>2026-08-02T15:22:13.689Z</time>
      </trkpt>
      <trkpt lat="38.113872" lon="128.439584">
        <ele>1428.492481</ele>
        <time>2026-08-02T15:23:18.803Z</time>
      </trkpt>
      <trkpt lat="38.114594" lon="128.440331">
        <ele>1427.574337</ele>
        <time>2026-08-02T15:24:53.386Z</time>
      </trkpt>
      <trkpt lat="38.114952" lon="128.441129">
        <ele>1426.839598</ele>
        <time>2026-08-02T15:26:06.250Z</time>
      </trkpt>
      <trkpt lat="38.115303" lon="128.442494">
        <ele>1426.889510</ele>
        <time>2026-08-02T15:28:06.481Z</time>
      </trkpt>
      <trkpt lat="38.115425" lon="128.443515">
        <ele>1427.755932</ele>
        <time>2026-08-02T15:29:27.981Z</time>
      </trkpt>
      <trkpt lat="38.115985" lon="128.445335">
        <ele>1440.427141</ele>
        <time>2026-08-02T15:32:43.472Z</time>
      </trkpt>
      <trkpt lat="38.116141" lon="128.446210">
        <ele>1448.556941</ele>
        <time>2026-08-02T15:34:37.907Z</time>
      </trkpt>
      <trkpt lat="38.116194" lon="128.446691">
        <ele>1457.945898</ele>
        <time>2026-08-02T15:35:50.873Z</time>
      </trkpt>
      <trkpt lat="38.116059" lon="128.447326">
        <ele>1470.661352</ele>
        <time>2026-08-02T15:37:43.260Z</time>
      </trkpt>
      <trkpt lat="38.116181" lon="128.448150">
        <ele>1486.869704</ele>
        <time>2026-08-02T15:40:26.986Z</time>
      </trkpt>
      <trkpt lat="38.116073" lon="128.448811">
        <ele>1501.512283</ele>
        <time>2026-08-02T15:42:53.497Z</time>
      </trkpt>
      <trkpt lat="38.115958" lon="128.449231">
        <ele>1511.818719</ele>
        <time>2026-08-02T15:44:33.578Z</time>
      </trkpt>
      <trkpt lat="38.115756" lon="128.449532">
        <ele>1520.987677</ele>
        <time>2026-08-02T15:46:01.633Z</time>
      </trkpt>
      <trkpt lat="38.115722" lon="128.450219">
        <ele>1536.940937</ele>
        <time>2026-08-02T15:48:22.526Z</time>
      </trkpt>
      <trkpt lat="38.115823" lon="128.450648">
        <ele>1545.938667</ele>
        <time>2026-08-02T15:49:45.294Z</time>
      </trkpt>
      <trkpt lat="38.116552" lon="128.451626">
        <ele>1559.362792</ele>
        <time>2026-08-02T15:52:43.585Z</time>
      </trkpt>
      <trkpt lat="38.116886" lon="128.452357">
        <ele>1567.684495</ele>
        <time>2026-08-02T15:54:00.726Z</time>
      </trkpt>
      <trkpt lat="38.117160" lon="128.453137">
        <ele>1568.257728</ele>
        <time>2026-08-02T15:55:08.207Z</time>
      </trkpt>
      <trkpt lat="38.118143" lon="128.453785">
        <ele>1569.202234</ele>
        <time>2026-08-02T15:57:00.381Z</time>
      </trkpt>
      <trkpt lat="38.118306" lon="128.453862">
        <ele>1570.594337</ele>
        <time>2026-08-02T15:57:18.986Z</time>
      </trkpt>
      <trkpt lat="38.118505" lon="128.453885">
        <ele>1572.287455</ele>
        <time>2026-08-02T15:57:41.099Z</time>
      </trkpt>
      <trkpt lat="38.118622" lon="128.454007">
        <ele>1573.569721</ele>
        <time>2026-08-02T15:57:58.487Z</time>
      </trkpt>
      <trkpt lat="38.118702" lon="128.454195">
        <ele>1574.994530</ele>
        <time>2026-08-02T15:58:18.472Z</time>
      </trkpt>
      <trkpt lat="38.118820" lon="128.454246">
        <ele>1576.050585</ele>
        <time>2026-08-02T15:58:33.788Z</time>
      </trkpt>
      <trkpt lat="38.119333" lon="128.454801">
        <ele>1581.758633</ele>
        <time>2026-08-02T16:00:04.609Z</time>
      </trkpt>
      <trkpt lat="38.119511" lon="128.454879">
        <ele>1583.353969</ele>
        <time>2026-08-02T16:00:34.619Z</time>
      </trkpt>
      <trkpt lat="38.119627" lon="128.455072">
        <ele>1585.429787</ele>
        <time>2026-08-02T16:01:07.134Z</time>
      </trkpt>
      <trkpt lat="38.119844" lon="128.455260">
        <ele>1589.604151</ele>
        <time>2026-08-02T16:01:54.893Z</time>
      </trkpt>
      <trkpt lat="38.119941" lon="128.455496">
        <ele>1592.933928</ele>
        <time>2026-08-02T16:02:34.680Z</time>
      </trkpt>
      <trkpt lat="38.120239" lon="128.455901">
        <ele>1599.868561</ele>
        <time>2026-08-02T16:04:00.489Z</time>
      </trkpt>
      <trkpt lat="38.120412" lon="128.456204">
        <ele>1604.550398</ele>
        <time>2026-08-02T16:04:57.128Z</time>
      </trkpt>
      <trkpt lat="38.120473" lon="128.456488">
        <ele>1608.231894</ele>
        <time>2026-08-02T16:05:38.626Z</time>
      </trkpt>
      <trkpt lat="38.120703" lon="128.456802">
        <ele>1612.912241</ele>
        <time>2026-08-02T16:06:30.324Z</time>
      </trkpt>
      <trkpt lat="38.120727" lon="128.456941">
        <ele>1612.495793</ele>
        <time>2026-08-02T16:06:45.145Z</time>
      </trkpt>
      <trkpt lat="38.120801" lon="128.457074">
        <ele>1612.019084</ele>
        <time>2026-08-02T16:07:01.394Z</time>
      </trkpt>
      <trkpt lat="38.120772" lon="128.457253">
        <ele>1611.484271</ele>
        <time>2026-08-02T16:07:18.329Z</time>
      </trkpt>
      <trkpt lat="38.120836" lon="128.457485">
        <ele>1610.764824</ele>
        <time>2026-08-02T16:07:39.065Z</time>
      </trkpt>
      <trkpt lat="38.120861" lon="128.457720">
        <ele>1610.070867</ele>
        <time>2026-08-02T16:07:58.441Z</time>
      </trkpt>
      <trkpt lat="38.120842" lon="128.457884">
        <ele>1609.585767</ele>
        <time>2026-08-02T16:08:12.749Z</time>
      </trkpt>
      <trkpt lat="38.120862" lon="128.458099">
        <ele>1608.952214</ele>
        <time>2026-08-02T16:08:32.303Z</time>
      </trkpt>
      <trkpt lat="38.120989" lon="128.458501">
        <ele>1607.684505</ele>
        <time>2026-08-02T16:09:14.544Z</time>
      </trkpt>
      <trkpt lat="38.121381" lon="128.459240">
        <ele>1603.478357</ele>
        <time>2026-08-02T16:10:46.560Z</time>
      </trkpt>
      <trkpt lat="38.121405" lon="128.459484">
        <ele>1601.857172</ele>
        <time>2026-08-02T16:11:11.883Z</time>
      </trkpt>
      <trkpt lat="38.121416" lon="128.459632">
        <ele>1600.877082</ele>
        <time>2026-08-02T16:11:26.988Z</time>
      </trkpt>
      <trkpt lat="38.121365" lon="128.460180">
        <ele>1597.238996</ele>
        <time>2026-08-02T16:12:20.340Z</time>
      </trkpt>
      <trkpt lat="38.121274" lon="128.460580">
        <ele>1594.493791</ele>
        <time>2026-08-02T16:12:57.559Z</time>
      </trkpt>
      <trkpt lat="38.121230" lon="128.460772">
        <ele>1593.175344</ele>
        <time>2026-08-02T16:13:14.196Z</time>
      </trkpt>
      <trkpt lat="38.121144" lon="128.461042">
        <ele>1591.322051</ele>
        <time>2026-08-02T16:13:37.836Z</time>
      </trkpt>
      <trkpt lat="38.120861" lon="128.461743">
        <ele>1601.031378</ele>
        <time>2026-08-02T16:14:57.058Z</time>
      </trkpt>
      <trkpt lat="38.120604" lon="128.462226">
        <ele>1608.216877</ele>
        <time>2026-08-02T16:16:17.601Z</time>
      </trkpt>
      <trkpt lat="38.120481" lon="128.462322">
        <ele>1610.477735</ele>
        <time>2026-08-02T16:16:46.922Z</time>
      </trkpt>
      <trkpt lat="38.120435" lon="128.462441">
        <ele>1612.111624</ele>
        <time>2026-08-02T16:17:09.067Z</time>
      </trkpt>
      <trkpt lat="38.120415" lon="128.462673">
        <ele>1614.987665</ele>
        <time>2026-08-02T16:17:49.568Z</time>
      </trkpt>
      <trkpt lat="38.120266" lon="128.462999">
        <ele>1619.719160</ele>
        <time>2026-08-02T16:18:59.711Z</time>
      </trkpt>
      <trkpt lat="38.119929" lon="128.463179">
        <ele>1628.136439</ele>
        <time>2026-08-02T16:20:31.724Z</time>
      </trkpt>
      <trkpt lat="38.119829" lon="128.463288">
        <ele>1631.169813</ele>
        <time>2026-08-02T16:21:05.677Z</time>
      </trkpt>
      <trkpt lat="38.119800" lon="128.463471">
        <ele>1634.551560</ele>
        <time>2026-08-02T16:21:43.874Z</time>
      </trkpt>
      <trkpt lat="38.119841" lon="128.463763">
        <ele>1639.924912</ele>
        <time>2026-08-02T16:22:44.075Z</time>
      </trkpt>
      <trkpt lat="38.119638" lon="128.463952">
        <ele>1645.719140</ele>
        <time>2026-08-02T16:23:47.053Z</time>
      </trkpt>
      <trkpt lat="38.119588" lon="128.464187">
        <ele>1650.129265</ele>
        <time>2026-08-02T16:24:31.317Z</time>
      </trkpt>
      <trkpt lat="38.119443" lon="128.464329">
        <ele>1654.344178</ele>
        <time>2026-08-02T16:25:08.646Z</time>
      </trkpt>
      <trkpt lat="38.119530" lon="128.464484">
        <ele>1657.793499</ele>
        <time>2026-08-02T16:25:35.476Z</time>
      </trkpt>
      <trkpt lat="38.119499" lon="128.464606">
        <ele>1660.116033</ele>
        <time>2026-08-02T16:25:51.646Z</time>
      </trkpt>
      <trkpt lat="38.119500" lon="128.464667">
        <ele>1660.715226</ele>
        <time>2026-08-02T16:25:58.333Z</time>
      </trkpt>
      <trkpt lat="38.119503" lon="128.464827">
        <ele>1659.451961</ele>
        <time>2026-08-02T16:26:15.120Z</time>
      </trkpt>
      <trkpt lat="38.119343" lon="128.465140">
        <ele>1656.505678</ele>
        <time>2026-08-02T16:26:48.658Z</time>
      </trkpt>
      <trkpt lat="38.119503" lon="128.464827">
        <ele>1653.559395</ele>
        <time>2026-08-02T16:27:20.482Z</time>
      </trkpt>
      <trkpt lat="38.119500" lon="128.464667">
        <ele>1652.296130</ele>
        <time>2026-08-02T16:27:35.546Z</time>
      </trkpt>
      <trkpt lat="38.119499" lon="128.464606">
        <ele>1651.814542</ele>
        <time>2026-08-02T16:27:41.396Z</time>
      </trkpt>
      <trkpt lat="38.119530" lon="128.464484">
        <ele>1650.802594</ele>
        <time>2026-08-02T16:27:54.345Z</time>
      </trkpt>
      <trkpt lat="38.119443" lon="128.464329">
        <ele>1649.299696</ele>
        <time>2026-08-02T16:28:14.422Z</time>
      </trkpt>
      <trkpt lat="38.119588" lon="128.464187">
        <ele>1647.463223</ele>
        <time>2026-08-02T16:28:41.925Z</time>
      </trkpt>
      <trkpt lat="38.119638" lon="128.463952">
        <ele>1645.541694</ele>
        <time>2026-08-02T16:29:14.116Z</time>
      </trkpt>
      <trkpt lat="38.119841" lon="128.463763">
        <ele>1643.017100</ele>
        <time>2026-08-02T16:29:59.548Z</time>
      </trkpt>
      <trkpt lat="38.119800" lon="128.463471">
        <ele>1637.683615</ele>
        <time>2026-08-02T16:30:42.862Z</time>
      </trkpt>
      <trkpt lat="38.119829" lon="128.463288">
        <ele>1634.156844</ele>
        <time>2026-08-02T16:31:10.328Z</time>
      </trkpt>
      <trkpt lat="38.119929" lon="128.463179">
        <ele>1630.993385</ele>
        <time>2026-08-02T16:31:34.751Z</time>
      </trkpt>
      <trkpt lat="38.120266" lon="128.462999">
        <ele>1622.215136</ele>
        <time>2026-08-02T16:32:41.115Z</time>
      </trkpt>
      <trkpt lat="38.120415" lon="128.462673">
        <ele>1615.092274</ele>
        <time>2026-08-02T16:33:31.993Z</time>
      </trkpt>
      <trkpt lat="38.120435" lon="128.462441">
        <ele>1610.683013</ele>
        <time>2026-08-02T16:34:01.574Z</time>
      </trkpt>
      <trkpt lat="38.120481" lon="128.462322">
        <ele>1608.178095</ele>
        <time>2026-08-02T16:34:17.815Z</time>
      </trkpt>
      <trkpt lat="38.120604" lon="128.462226">
        <ele>1604.711971</ele>
        <time>2026-08-02T16:34:39.421Z</time>
      </trkpt>
      <trkpt lat="38.120861" lon="128.461743">
        <ele>1598.991461</ele>
        <time>2026-08-02T16:35:39.959Z</time>
      </trkpt>
      <trkpt lat="38.121144" lon="128.461042">
        <ele>1597.389485</ele>
        <time>2026-08-02T16:36:52.087Z</time>
      </trkpt>
      <trkpt lat="38.121230" lon="128.460772">
        <ele>1596.797237</ele>
        <time>2026-08-02T16:37:15.454Z</time>
      </trkpt>
      <trkpt lat="38.121274" lon="128.460580">
        <ele>1596.390639</ele>
        <time>2026-08-02T16:37:32.594Z</time>
      </trkpt>
      <trkpt lat="38.121365" lon="128.460180">
        <ele>1595.544043</ele>
        <time>2026-08-02T16:38:12.970Z</time>
      </trkpt>
      <trkpt lat="38.121416" lon="128.459632">
        <ele>1596.747714</ele>
        <time>2026-08-02T16:39:15.241Z</time>
      </trkpt>
      <trkpt lat="38.121405" lon="128.459484">
        <ele>1597.701688</ele>
        <time>2026-08-02T16:39:34.387Z</time>
      </trkpt>
      <trkpt lat="38.121732" lon="128.459154">
        <ele>1601.107467</ele>
        <time>2026-08-02T16:40:44.194Z</time>
      </trkpt>
      <trkpt lat="38.121840" lon="128.458982">
        <ele>1602.519687</ele>
        <time>2026-08-02T16:41:11.946Z</time>
      </trkpt>
      <trkpt lat="38.121955" lon="128.458613">
        <ele>1605.066656</ele>
        <time>2026-08-02T16:41:57.345Z</time>
      </trkpt>
      <trkpt lat="38.122279" lon="128.458124">
        <ele>1609.169310</ele>
        <time>2026-08-02T16:42:56.232Z</time>
      </trkpt>
      <trkpt lat="38.122728" lon="128.457682">
        <ele>1601.299968</ele>
        <time>2026-08-02T16:44:02.030Z</time>
      </trkpt>
      <trkpt lat="38.122742" lon="128.457614">
        <ele>1600.391710</ele>
        <time>2026-08-02T16:44:09.041Z</time>
      </trkpt>
      <trkpt lat="38.122923" lon="128.457572">
        <ele>1597.369617</ele>
        <time>2026-08-02T16:44:33.808Z</time>
      </trkpt>
      <trkpt lat="38.123001" lon="128.457480">
        <ele>1595.621880</ele>
        <time>2026-08-02T16:44:48.944Z</time>
      </trkpt>
      <trkpt lat="38.123163" lon="128.457446">
        <ele>1592.924971</ele>
        <time>2026-08-02T16:45:14.063Z</time>
      </trkpt>
      <trkpt lat="38.123237" lon="128.457360">
        <ele>1591.278087</ele>
        <time>2026-08-02T16:45:30.314Z</time>
      </trkpt>
      <trkpt lat="38.123332" lon="128.457377">
        <ele>1589.702305</ele>
        <time>2026-08-02T16:45:45.945Z</time>
      </trkpt>
      <trkpt lat="38.123480" lon="128.457257">
        <ele>1586.818956</ele>
        <time>2026-08-02T16:46:15.228Z</time>
      </trkpt>
      <trkpt lat="38.123595" lon="128.457282">
        <ele>1584.902633</ele>
        <time>2026-08-02T16:46:34.939Z</time>
      </trkpt>
      <trkpt lat="38.123879" lon="128.457145">
        <ele>1579.802901</ele>
        <time>2026-08-02T16:47:27.100Z</time>
      </trkpt>
      <trkpt lat="38.123976" lon="128.457027">
        <ele>1576.361523</ele>
        <time>2026-08-02T16:47:49.524Z</time>
      </trkpt>
      <trkpt lat="38.124095" lon="128.456956">
        <ele>1572.992045</ele>
        <time>2026-08-02T16:48:11.178Z</time>
      </trkpt>
      <trkpt lat="38.124628" lon="128.456742">
        <ele>1558.664929</ele>
        <time>2026-08-02T16:49:37.455Z</time>
      </trkpt>
      <trkpt lat="38.124925" lon="128.456553">
        <ele>1550.151601</ele>
        <time>2026-08-02T16:50:28.613Z</time>
      </trkpt>
      <trkpt lat="38.125541" lon="128.456712">
        <ele>1534.040086</ele>
        <time>2026-08-02T16:52:18.606Z</time>
      </trkpt>
      <trkpt lat="38.125678" lon="128.456792">
        <ele>1527.228334</ele>
        <time>2026-08-02T16:52:55.732Z</time>
      </trkpt>
      <trkpt lat="38.125783" lon="128.456944">
        <ele>1520.011975</ele>
        <time>2026-08-02T16:53:37.127Z</time>
      </trkpt>
      <trkpt lat="38.126230" lon="128.457295">
        <ele>1496.185584</ele>
        <time>2026-08-02T16:56:09.522Z</time>
      </trkpt>
      <trkpt lat="38.126361" lon="128.457535">
        <ele>1485.764735</ele>
        <time>2026-08-02T16:57:23.499Z</time>
      </trkpt>
      <trkpt lat="38.126451" lon="128.457589">
        <ele>1481.251573</ele>
        <time>2026-08-02T16:57:57.069Z</time>
      </trkpt>
      <trkpt lat="38.126498" lon="128.457786">
        <ele>1473.907778</ele>
        <time>2026-08-02T16:58:53.196Z</time>
      </trkpt>
      <trkpt lat="38.126573" lon="128.457947">
        <ele>1467.232827</ele>
        <time>2026-08-02T16:59:45.251Z</time>
      </trkpt>
      <trkpt lat="38.126792" lon="128.458126">
        <ele>1455.425734</ele>
        <time>2026-08-02T17:01:18.970Z</time>
      </trkpt>
      <trkpt lat="38.126896" lon="128.458322">
        <ele>1445.639989</ele>
        <time>2026-08-02T17:02:26.327Z</time>
      </trkpt>
      <trkpt lat="38.126990" lon="128.458429">
        <ele>1438.498546</ele>
        <time>2026-08-02T17:03:12.645Z</time>
      </trkpt>
      <trkpt lat="38.127068" lon="128.458471">
        <ele>1433.704164</ele>
        <time>2026-08-02T17:03:43.760Z</time>
      </trkpt>
      <trkpt lat="38.127145" lon="128.458576">
        <ele>1427.312967</ele>
        <time>2026-08-02T17:04:25.349Z</time>
      </trkpt>
      <trkpt lat="38.127212" lon="128.458560">
        <ele>1423.454544</ele>
        <time>2026-08-02T17:04:50.733Z</time>
      </trkpt>
      <trkpt lat="38.127283" lon="128.458585">
        <ele>1419.284754</ele>
        <time>2026-08-02T17:05:17.835Z</time>
      </trkpt>
      <trkpt lat="38.127433" lon="128.458742">
        <ele>1408.287629</ele>
        <time>2026-08-02T17:06:29.422Z</time>
      </trkpt>
      <trkpt lat="38.127528" lon="128.458778">
        <ele>1402.676970</ele>
        <time>2026-08-02T17:07:05.925Z</time>
      </trkpt>
      <trkpt lat="38.127627" lon="128.458899">
        <ele>1394.904042</ele>
        <time>2026-08-02T17:07:56.416Z</time>
      </trkpt>
      <trkpt lat="38.127692" lon="128.459045">
        <ele>1387.434920</ele>
        <time>2026-08-02T17:08:44.855Z</time>
      </trkpt>
      <trkpt lat="38.127760" lon="128.459124">
        <ele>1382.221132</ele>
        <time>2026-08-02T17:09:18.372Z</time>
      </trkpt>
      <trkpt lat="38.127874" lon="128.459199">
        <ele>1374.956066</ele>
        <time>2026-08-02T17:10:04.955Z</time>
      </trkpt>
      <trkpt lat="38.127941" lon="128.459398">
        <ele>1365.318728</ele>
        <time>2026-08-02T17:11:06.373Z</time>
      </trkpt>
      <trkpt lat="38.128159" lon="128.459745">
        <ele>1346.196414</ele>
        <time>2026-08-02T17:13:11.439Z</time>
      </trkpt>
      <trkpt lat="38.128401" lon="128.459856">
        <ele>1333.491308</ele>
        <time>2026-08-02T17:14:42.331Z</time>
      </trkpt>
      <trkpt lat="38.128592" lon="128.460000">
        <ele>1322.524880</ele>
        <time>2026-08-02T17:15:58.840Z</time>
      </trkpt>
      <trkpt lat="38.128779" lon="128.460089">
        <ele>1312.664050</ele>
        <time>2026-08-02T17:17:06.405Z</time>
      </trkpt>
      <trkpt lat="38.128903" lon="128.460232">
        <ele>1304.396149</ele>
        <time>2026-08-02T17:18:02.318Z</time>
      </trkpt>
      <trkpt lat="38.128980" lon="128.460252">
        <ele>1300.515003</ele>
        <time>2026-08-02T17:18:28.123Z</time>
      </trkpt>
      <trkpt lat="38.129033" lon="128.460300">
        <ele>1297.301361</ele>
        <time>2026-08-02T17:18:49.299Z</time>
      </trkpt>
      <trkpt lat="38.129071" lon="128.460382">
        <ele>1293.604252</ele>
        <time>2026-08-02T17:19:13.425Z</time>
      </trkpt>
      <trkpt lat="38.129084" lon="128.460495">
        <ele>1289.167874</ele>
        <time>2026-08-02T17:19:42.061Z</time>
      </trkpt>
      <trkpt lat="38.129237" lon="128.460734">
        <ele>1277.197527</ele>
        <time>2026-08-02T17:20:57.695Z</time>
      </trkpt>
      <trkpt lat="38.129351" lon="128.460844">
        <ele>1270.129691</ele>
        <time>2026-08-02T17:21:41.327Z</time>
      </trkpt>
      <trkpt lat="38.129481" lon="128.460838">
        <ele>1263.705509</ele>
        <time>2026-08-02T17:22:20.693Z</time>
      </trkpt>
      <trkpt lat="38.129625" lon="128.460872">
        <ele>1257.588283</ele>
        <time>2026-08-02T17:23:03.800Z</time>
      </trkpt>
      <trkpt lat="38.129699" lon="128.460925">
        <ele>1254.269571</ele>
        <time>2026-08-02T17:23:28.585Z</time>
      </trkpt>
      <trkpt lat="38.129839" lon="128.461093">
        <ele>1246.747213</ele>
        <time>2026-08-02T17:24:23.518Z</time>
      </trkpt>
      <trkpt lat="38.129860" lon="128.461179">
        <ele>1243.979534</ele>
        <time>2026-08-02T17:24:43.329Z</time>
      </trkpt>
      <trkpt lat="38.129916" lon="128.461260">
        <ele>1240.665063</ele>
        <time>2026-08-02T17:25:06.901Z</time>
      </trkpt>
      <trkpt lat="38.130060" lon="128.461389">
        <ele>1233.781894</ele>
        <time>2026-08-02T17:25:55.001Z</time>
      </trkpt>
      <trkpt lat="38.130278" lon="128.461453">
        <ele>1225.039774</ele>
        <time>2026-08-02T17:26:55.485Z</time>
      </trkpt>
      <trkpt lat="38.130347" lon="128.461440">
        <ele>1222.314281</ele>
        <time>2026-08-02T17:27:13.976Z</time>
      </trkpt>
      <trkpt lat="38.130516" lon="128.461512">
        <ele>1215.349984</ele>
        <time>2026-08-02T17:28:01.745Z</time>
      </trkpt>
      <trkpt lat="38.130719" lon="128.461470">
        <ele>1207.313782</ele>
        <time>2026-08-02T17:28:56.580Z</time>
      </trkpt>
      <trkpt lat="38.130764" lon="128.461485">
        <ele>1205.496055</ele>
        <time>2026-08-02T17:29:08.823Z</time>
      </trkpt>
      <trkpt lat="38.130975" lon="128.461617">
        <ele>1196.307471</ele>
        <time>2026-08-02T17:30:12.377Z</time>
      </trkpt>
      <trkpt lat="38.131024" lon="128.461704">
        <ele>1193.018764</ele>
        <time>2026-08-02T17:30:35.268Z</time>
      </trkpt>
      <trkpt lat="38.131085" lon="128.461751">
        <ele>1190.174895</ele>
        <time>2026-08-02T17:30:54.750Z</time>
      </trkpt>
      <trkpt lat="38.131200" lon="128.461780">
        <ele>1185.394581</ele>
        <time>2026-08-02T17:31:27.250Z</time>
      </trkpt>
      <trkpt lat="38.131438" lon="128.461933">
        <ele>1174.520347</ele>
        <time>2026-08-02T17:32:42.222Z</time>
      </trkpt>
      <trkpt lat="38.131422" lon="128.462183">
        <ele>1166.475772</ele>
        <time>2026-08-02T17:33:39.050Z</time>
      </trkpt>
      <trkpt lat="38.131434" lon="128.462265">
        <ele>1163.800714</ele>
        <time>2026-08-02T17:33:58.233Z</time>
      </trkpt>
      <trkpt lat="38.131676" lon="128.462592">
        <ele>1149.400994</ele>
        <time>2026-08-02T17:35:42.787Z</time>
      </trkpt>
      <trkpt lat="38.131739" lon="128.462858">
        <ele>1140.491457</ele>
        <time>2026-08-02T17:36:48.460Z</time>
      </trkpt>
      <trkpt lat="38.131806" lon="128.462972">
        <ele>1135.927372</ele>
        <time>2026-08-02T17:37:22.271Z</time>
      </trkpt>
      <trkpt lat="38.132015" lon="128.463141">
        <ele>1125.828002</ele>
        <time>2026-08-02T17:38:36.774Z</time>
      </trkpt>
      <trkpt lat="38.132176" lon="128.463189">
        <ele>1119.085368</ele>
        <time>2026-08-02T17:39:25.450Z</time>
      </trkpt>
      <trkpt lat="38.132233" lon="128.463280">
        <ele>1118.200538</ele>
        <time>2026-08-02T17:39:51.791Z</time>
      </trkpt>
      <trkpt lat="38.132278" lon="128.463365">
        <ele>1118.200538</ele>
        <time>2026-08-02T17:40:14.656Z</time>
      </trkpt>
      <trkpt lat="38.132302" lon="128.463491">
        <ele>1118.200538</ele>
        <time>2026-08-02T17:40:42.893Z</time>
      </trkpt>
      <trkpt lat="38.132295" lon="128.463701">
        <ele>1118.200538</ele>
        <time>2026-08-02T17:41:26.882Z</time>
      </trkpt>
      <trkpt lat="38.132345" lon="128.463808">
        <ele>1118.200538</ele>
        <time>2026-08-02T17:41:51.717Z</time>
      </trkpt>
      <trkpt lat="38.132378" lon="128.464039">
        <ele>1118.200538</ele>
        <time>2026-08-02T17:42:35.833Z</time>
      </trkpt>
      <trkpt lat="38.132434" lon="128.464125">
        <ele>1118.200538</ele>
        <time>2026-08-02T17:42:55.757Z</time>
      </trkpt>
      <trkpt lat="38.132499" lon="128.464165">
        <ele>1118.200538</ele>
        <time>2026-08-02T17:43:11.324Z</time>
      </trkpt>
      <trkpt lat="38.132649" lon="128.464410">
        <ele>1118.200538</ele>
        <time>2026-08-02T17:44:00.318Z</time>
      </trkpt>
      <trkpt lat="38.132650" lon="128.464543">
        <ele>1118.200538</ele>
        <time>2026-08-02T17:44:15.480Z</time>
      </trkpt>
      <trkpt lat="38.132662" lon="128.464714">
        <ele>1118.200538</ele>
        <time>2026-08-02T17:44:33.721Z</time>
      </trkpt>
      <trkpt lat="38.132632" lon="128.464811">
        <ele>1118.200538</ele>
        <time>2026-08-02T17:44:44.458Z</time>
      </trkpt>
    </trkseg>
  </trk>
</gpx>