<?xml version='1.0' encoding='UTF-8'?>
<gpx version="1.1" creator="https://www.komoot.de" xmlns="http://www.topografix.com/GPX/1/1" xmlns:xsi="http://www.w3.org/2001/XMLSchema-instance" xsi:schemaLocation="http://www.topografix.com/GPX/1/1 http://www.topografix.com/GPX/1/1/gpx.xsd">
  <metadata>
    <name>36차 47구간 희운각대피소 공룡능선 마등령 비선대 (2026/08/23)</name>
    <author>
      <link href="https://www.komoot.de">
        <text>komoot</text>
        <type>text/html</type>
      </link>
    </author>
  </metadata>
  <trk>
    <name>46구간 희운각 - 공룡능선 - 마등령</name>
    <type>hike</type>
    <trkseg>
      <trkpt lat="38.132632" lon="128.464811">
        <ele>1059.690279</ele>
        <time>2026-08-02T13:16:52.938Z</time>
      </trkpt>
      <trkpt lat="38.132662" lon="128.464714">
        <ele>1059.690279</ele>
        <time>2026-08-02T13:17:02.118Z</time>
      </trkpt>
      <trkpt lat="38.132700" lon="128.464700">
        <ele>1059.690279</ele>
        <time>2026-08-02T13:17:06.651Z</time>
      </trkpt>
      <trkpt lat="38.132765" lon="128.464685">
        <ele>1059.690279</ele>
        <time>2026-08-02T13:17:14.109Z</time>
      </trkpt>
      <trkpt lat="38.132866" lon="128.464613">
        <ele>1059.690279</ele>
        <time>2026-08-02T13:17:27.197Z</time>
      </trkpt>
      <trkpt lat="38.132994" lon="128.464606">
        <ele>1059.690279</ele>
        <time>2026-08-02T13:17:41.930Z</time>
      </trkpt>
      <trkpt lat="38.133132" lon="128.464709">
        <ele>1059.690279</ele>
        <time>2026-08-02T13:18:00.369Z</time>
      </trkpt>
      <trkpt lat="38.133202" lon="128.464731">
        <ele>1059.690279</ele>
        <time>2026-08-02T13:18:08.688Z</time>
      </trkpt>
      <trkpt lat="38.133352" lon="128.464640">
        <ele>1059.690279</ele>
        <time>2026-08-02T13:18:27.877Z</time>
      </trkpt>
      <trkpt lat="38.133717" lon="128.464625">
        <ele>1059.282261</ele>
        <time>2026-08-02T13:19:10.188Z</time>
      </trkpt>
      <trkpt lat="38.133866" lon="128.464560">
        <ele>1059.064919</ele>
        <time>2026-08-02T13:19:28.140Z</time>
      </trkpt>
      <trkpt lat="38.133993" lon="128.464576">
        <ele>1058.888837</ele>
        <time>2026-08-02T13:19:42.421Z</time>
      </trkpt>
      <trkpt lat="38.134210" lon="128.464530">
        <ele>1058.585307</ele>
        <time>2026-08-02T13:20:06.205Z</time>
      </trkpt>
      <trkpt lat="38.134398" lon="128.464466">
        <ele>1058.316784</ele>
        <time>2026-08-02T13:20:26.433Z</time>
      </trkpt>
      <trkpt lat="38.134479" lon="128.464406">
        <ele>1058.187442</ele>
        <time>2026-08-02T13:20:35.905Z</time>
      </trkpt>
      <trkpt lat="38.134659" lon="128.464273">
        <ele>1057.900198</ele>
        <time>2026-08-02T13:21:05.019Z</time>
      </trkpt>
      <trkpt lat="38.134794" lon="128.464107">
        <ele>1057.641072</ele>
        <time>2026-08-02T13:21:32.853Z</time>
      </trkpt>
      <trkpt lat="38.134940" lon="128.464065">
        <ele>1057.434542</ele>
        <time>2026-08-02T13:21:55.845Z</time>
      </trkpt>
      <trkpt lat="38.135183" lon="128.463943">
        <ele>1058.573000</ele>
        <time>2026-08-02T13:22:37.763Z</time>
      </trkpt>
      <trkpt lat="38.135234" lon="128.463864">
        <ele>1059.697246</ele>
        <time>2026-08-02T13:22:51.081Z</time>
      </trkpt>
      <trkpt lat="38.135473" lon="128.463707">
        <ele>1063.459559</ele>
        <time>2026-08-02T13:23:37.013Z</time>
      </trkpt>
      <trkpt lat="38.135573" lon="128.463584">
        <ele>1065.405475</ele>
        <time>2026-08-02T13:24:01.617Z</time>
      </trkpt>
      <trkpt lat="38.135731" lon="128.463479">
        <ele>1067.898826</ele>
        <time>2026-08-02T13:24:33.942Z</time>
      </trkpt>
      <trkpt lat="38.135866" lon="128.463480">
        <ele>1069.786883</ele>
        <time>2026-08-02T13:24:59.567Z</time>
      </trkpt>
      <trkpt lat="38.135978" lon="128.463400">
        <ele>1071.583522</ele>
        <time>2026-08-02T13:25:25.746Z</time>
      </trkpt>
      <trkpt lat="38.136154" lon="128.463204">
        <ele>1074.855688</ele>
        <time>2026-08-02T13:26:18.317Z</time>
      </trkpt>
      <trkpt lat="38.136168" lon="128.463114">
        <ele>1075.864875</ele>
        <time>2026-08-02T13:26:36.046Z</time>
      </trkpt>
      <trkpt lat="38.136251" lon="128.463011">
        <ele>1077.486955</ele>
        <time>2026-08-02T13:27:05.391Z</time>
      </trkpt>
      <trkpt lat="38.136328" lon="128.462856">
        <ele>1079.503571</ele>
        <time>2026-08-02T13:27:44.391Z</time>
      </trkpt>
      <trkpt lat="38.136509" lon="128.462798">
        <ele>1082.114087</ele>
        <time>2026-08-02T13:28:38.885Z</time>
      </trkpt>
      <trkpt lat="38.136504" lon="128.462684">
        <ele>1084.509189</ele>
        <time>2026-08-02T13:29:06.486Z</time>
      </trkpt>
      <trkpt lat="38.136612" lon="128.462626">
        <ele>1088.004228</ele>
        <time>2026-08-02T13:29:44.514Z</time>
      </trkpt>
      <trkpt lat="38.136702" lon="128.462614">
        <ele>1090.701938</ele>
        <time>2026-08-02T13:30:14.825Z</time>
      </trkpt>
      <trkpt lat="38.136808" lon="128.462645">
        <ele>1093.944434</ele>
        <time>2026-08-02T13:30:52.467Z</time>
      </trkpt>
      <trkpt lat="38.136908" lon="128.462616">
        <ele>1097.002107</ele>
        <time>2026-08-02T13:31:29.793Z</time>
      </trkpt>
      <trkpt lat="38.136995" lon="128.462625">
        <ele>1099.604242</ele>
        <time>2026-08-02T13:32:02.110Z</time>
      </trkpt>
      <trkpt lat="38.137238" lon="128.462747">
        <ele>1107.392682</ele>
        <time>2026-08-02T13:33:44.712Z</time>
      </trkpt>
      <trkpt lat="38.137430" lon="128.462497">
        <ele>1115.585501</ele>
        <time>2026-08-02T13:35:38.384Z</time>
      </trkpt>
      <trkpt lat="38.137543" lon="128.462506">
        <ele>1118.960755</ele>
        <time>2026-08-02T13:36:25.300Z</time>
      </trkpt>
      <trkpt lat="38.137649" lon="128.462365">
        <ele>1123.534104</ele>
        <time>2026-08-02T13:37:26.800Z</time>
      </trkpt>
      <trkpt lat="38.137719" lon="128.462411">
        <ele>1125.883137</ele>
        <time>2026-08-02T13:37:57.486Z</time>
      </trkpt>
      <trkpt lat="38.137942" lon="128.462383">
        <ele>1132.563345</ele>
        <time>2026-08-02T13:39:19.297Z</time>
      </trkpt>
      <trkpt lat="38.138162" lon="128.462412">
        <ele>1136.100924</ele>
        <time>2026-08-02T13:40:30.726Z</time>
      </trkpt>
      <trkpt lat="38.138386" lon="128.462288">
        <ele>1136.371866</ele>
        <time>2026-08-02T13:41:37.232Z</time>
      </trkpt>
      <trkpt lat="38.138423" lon="128.462244">
        <ele>1136.428051</ele>
        <time>2026-08-02T13:41:49.151Z</time>
      </trkpt>
      <trkpt lat="38.138504" lon="128.462148">
        <ele>1136.550856</ele>
        <time>2026-08-02T13:42:12.495Z</time>
      </trkpt>
      <trkpt lat="38.138599" lon="128.462126">
        <ele>1136.657945</ele>
        <time>2026-08-02T13:42:30.072Z</time>
      </trkpt>
      <trkpt lat="38.138685" lon="128.462061">
        <ele>1136.768899</ele>
        <time>2026-08-02T13:42:47.237Z</time>
      </trkpt>
      <trkpt lat="38.138779" lon="128.461949">
        <ele>1136.911766</ele>
        <time>2026-08-02T13:43:06.897Z</time>
      </trkpt>
      <trkpt lat="38.138934" lon="128.461925">
        <ele>1137.084932</ele>
        <time>2026-08-02T13:43:28.272Z</time>
      </trkpt>
      <trkpt lat="38.139004" lon="128.461834">
        <ele>1137.195958</ele>
        <time>2026-08-02T13:43:43.029Z</time>
      </trkpt>
      <trkpt lat="38.139131" lon="128.461737">
        <ele>1137.360261</ele>
        <time>2026-08-02T13:44:06.466Z</time>
      </trkpt>
      <trkpt lat="38.139171" lon="128.461453">
        <ele>1137.611920</ele>
        <time>2026-08-02T13:44:45.688Z</time>
      </trkpt>
      <trkpt lat="38.139356" lon="128.461340">
        <ele>1137.839534</ele>
        <time>2026-08-02T13:45:26.142Z</time>
      </trkpt>
      <trkpt lat="38.139787" lon="128.461169">
        <ele>1131.948987</ele>
        <time>2026-08-02T13:47:04.896Z</time>
      </trkpt>
      <trkpt lat="38.139846" lon="128.461007">
        <ele>1129.360741</ele>
        <time>2026-08-02T13:47:36.308Z</time>
      </trkpt>
      <trkpt lat="38.140014" lon="128.460863">
        <ele>1125.625952</ele>
        <time>2026-08-02T13:48:21.857Z</time>
      </trkpt>
      <trkpt lat="38.140095" lon="128.460707">
        <ele>1122.915880</ele>
        <time>2026-08-02T13:48:54.118Z</time>
      </trkpt>
      <trkpt lat="38.140228" lon="128.460363">
        <ele>1117.358607</ele>
        <time>2026-08-02T13:49:57.830Z</time>
      </trkpt>
      <trkpt lat="38.140215" lon="128.460282">
        <ele>1116.160081</ele>
        <time>2026-08-02T13:50:10.680Z</time>
      </trkpt>
      <trkpt lat="38.140142" lon="128.460227">
        <ele>1114.595937</ele>
        <time>2026-08-02T13:50:27.095Z</time>
      </trkpt>
      <trkpt lat="38.140175" lon="128.460153">
        <ele>1113.362642</ele>
        <time>2026-08-02T13:50:39.586Z</time>
      </trkpt>
      <trkpt lat="38.140260" lon="128.460069">
        <ele>1111.378190</ele>
        <time>2026-08-02T13:50:58.997Z</time>
      </trkpt>
      <trkpt lat="38.140327" lon="128.459927">
        <ele>1108.977458</ele>
        <time>2026-08-02T13:51:21.659Z</time>
      </trkpt>
      <trkpt lat="38.140369" lon="128.459653">
        <ele>1104.930315</ele>
        <time>2026-08-02T13:51:58.033Z</time>
      </trkpt>
      <trkpt lat="38.140450" lon="128.459551">
        <ele>1105.030758</ele>
        <time>2026-08-02T13:52:16.115Z</time>
      </trkpt>
      <trkpt lat="38.140418" lon="128.459335">
        <ele>1105.363510</ele>
        <time>2026-08-02T13:52:42.246Z</time>
      </trkpt>
      <trkpt lat="38.140472" lon="128.459145">
        <ele>1105.669354</ele>
        <time>2026-08-02T13:53:05.031Z</time>
      </trkpt>
      <trkpt lat="38.140469" lon="128.459001">
        <ele>1105.887431</ele>
        <time>2026-08-02T13:53:20.418Z</time>
      </trkpt>
      <trkpt lat="38.140517" lon="128.458748">
        <ele>1106.281433</ele>
        <time>2026-08-02T13:53:50.268Z</time>
      </trkpt>
      <trkpt lat="38.140483" lon="128.458550">
        <ele>1106.588245</ele>
        <time>2026-08-02T13:54:15.528Z</time>
      </trkpt>
      <trkpt lat="38.140668" lon="128.458084">
        <ele>1107.378498</ele>
        <time>2026-08-02T13:55:24.903Z</time>
      </trkpt>
      <trkpt lat="38.140875" lon="128.457947">
        <ele>1107.827690</ele>
        <time>2026-08-02T13:56:05.963Z</time>
      </trkpt>
      <trkpt lat="38.141111" lon="128.457609">
        <ele>1108.792174</ele>
        <time>2026-08-02T13:57:09.003Z</time>
      </trkpt>
      <trkpt lat="38.141061" lon="128.457483">
        <ele>1109.269317</ele>
        <time>2026-08-02T13:57:28.485Z</time>
      </trkpt>
      <trkpt lat="38.141187" lon="128.457172">
        <ele>1110.452076</ele>
        <time>2026-08-02T13:58:15.328Z</time>
      </trkpt>
      <trkpt lat="38.141230" lon="128.456984">
        <ele>1111.114013</ele>
        <time>2026-08-02T13:58:40.590Z</time>
      </trkpt>
      <trkpt lat="38.141132" lon="128.456813">
        <ele>1111.829347</ele>
        <time>2026-08-02T13:59:07.149Z</time>
      </trkpt>
      <trkpt lat="38.140972" lon="128.456700">
        <ele>1112.616118</ele>
        <time>2026-08-02T13:59:35.404Z</time>
      </trkpt>
      <trkpt lat="38.140903" lon="128.456593">
        <ele>1113.083925</ele>
        <time>2026-08-02T13:59:51.745Z</time>
      </trkpt>
      <trkpt lat="38.141069" lon="128.456287">
        <ele>1114.340704</ele>
        <time>2026-08-02T14:00:33.280Z</time>
      </trkpt>
      <trkpt lat="38.141236" lon="128.456158">
        <ele>1115.180682</ele>
        <time>2026-08-02T14:00:59.792Z</time>
      </trkpt>
      <trkpt lat="38.141504" lon="128.455740">
        <ele>1116.585370</ele>
        <time>2026-08-02T14:01:57.172Z</time>
      </trkpt>
      <trkpt lat="38.141560" lon="128.455587">
        <ele>1116.914058</ele>
        <time>2026-08-02T14:02:15.448Z</time>
      </trkpt>
      <trkpt lat="38.141723" lon="128.455418">
        <ele>1117.434915</ele>
        <time>2026-08-02T14:02:44.946Z</time>
      </trkpt>
      <trkpt lat="38.141879" lon="128.455501">
        <ele>1117.853703</ele>
        <time>2026-08-02T14:03:09.553Z</time>
      </trkpt>
      <trkpt lat="38.141985" lon="128.455300">
        <ele>1118.325053</ele>
        <time>2026-08-02T14:03:38.087Z</time>
      </trkpt>
      <trkpt lat="38.142073" lon="128.455230">
        <ele>1118.582116</ele>
        <time>2026-08-02T14:03:54.005Z</time>
      </trkpt>
      <trkpt lat="38.142229" lon="128.455241">
        <ele>1118.969037</ele>
        <time>2026-08-02T14:04:18.225Z</time>
      </trkpt>
      <trkpt lat="38.142305" lon="128.455107">
        <ele>1119.290813</ele>
        <time>2026-08-02T14:04:38.553Z</time>
      </trkpt>
      <trkpt lat="38.142348" lon="128.454897">
        <ele>1119.713462</ele>
        <time>2026-08-02T14:05:05.230Z</time>
      </trkpt>
      <trkpt lat="38.142489" lon="128.454707">
        <ele>1120.222256</ele>
        <time>2026-08-02T14:05:37.396Z</time>
      </trkpt>
      <trkpt lat="38.142567" lon="128.454667">
        <ele>1120.430539</ele>
        <time>2026-08-02T14:05:50.483Z</time>
      </trkpt>
      <trkpt lat="38.142833" lon="128.454694">
        <ele>1119.063706</ele>
        <time>2026-08-02T14:06:30.710Z</time>
      </trkpt>
      <trkpt lat="38.143109" lon="128.454530">
        <ele>1117.353206</ele>
        <time>2026-08-02T14:07:13.867Z</time>
      </trkpt>
      <trkpt lat="38.143250" lon="128.454393">
        <ele>1116.356863</ele>
        <time>2026-08-02T14:07:38.301Z</time>
      </trkpt>
      <trkpt lat="38.143373" lon="128.454318">
        <ele>1115.590961</ele>
        <time>2026-08-02T14:07:57.707Z</time>
      </trkpt>
      <trkpt lat="38.143482" lon="128.454189">
        <ele>1114.754892</ele>
        <time>2026-08-02T14:08:19.857Z</time>
      </trkpt>
      <trkpt lat="38.143571" lon="128.454163">
        <ele>1114.242171</ele>
        <time>2026-08-02T14:08:33.771Z</time>
      </trkpt>
      <trkpt lat="38.143685" lon="128.454203">
        <ele>1113.578181</ele>
        <time>2026-08-02T14:08:52.288Z</time>
      </trkpt>
      <trkpt lat="38.143826" lon="128.454114">
        <ele>1112.694340</ele>
        <time>2026-08-02T14:09:17.820Z</time>
      </trkpt>
      <trkpt lat="38.144027" lon="128.454093">
        <ele>1111.561997</ele>
        <time>2026-08-02T14:09:51.716Z</time>
      </trkpt>
      <trkpt lat="38.144170" lon="128.453959">
        <ele>1110.564629</ele>
        <time>2026-08-02T14:10:23.265Z</time>
      </trkpt>
      <trkpt lat="38.144702" lon="128.454050">
        <ele>1104.369597</ele>
        <time>2026-08-02T14:12:10.287Z</time>
      </trkpt>
      <trkpt lat="38.145052" lon="128.453857">
        <ele>1099.812506</ele>
        <time>2026-08-02T14:13:18.052Z</time>
      </trkpt>
      <trkpt lat="38.145204" lon="128.453664">
        <ele>1097.246549</ele>
        <time>2026-08-02T14:13:55.267Z</time>
      </trkpt>
      <trkpt lat="38.145221" lon="128.453573">
        <ele>1096.367872</ele>
        <time>2026-08-02T14:14:07.789Z</time>
      </trkpt>
      <trkpt lat="38.145270" lon="128.453491">
        <ele>1095.400389</ele>
        <time>2026-08-02T14:14:21.468Z</time>
      </trkpt>
      <trkpt lat="38.145305" lon="128.453433">
        <ele>1094.713596</ele>
        <time>2026-08-02T14:14:31.251Z</time>
      </trkpt>
      <trkpt lat="38.145550" lon="128.453390">
        <ele>1091.759241</ele>
        <time>2026-08-02T14:15:11.051Z</time>
      </trkpt>
      <trkpt lat="38.145719" lon="128.453481">
        <ele>1089.566930</ele>
        <time>2026-08-02T14:15:39.053Z</time>
      </trkpt>
      <trkpt lat="38.145929" lon="128.453497">
        <ele>1092.316750</ele>
        <time>2026-08-02T14:16:08.673Z</time>
      </trkpt>
      <trkpt lat="38.146069" lon="128.453428">
        <ele>1095.673534</ele>
        <time>2026-08-02T14:16:30.750Z</time>
      </trkpt>
      <trkpt lat="38.146208" lon="128.453122">
        <ele>1101.886581</ele>
        <time>2026-08-02T14:17:21.383Z</time>
      </trkpt>
      <trkpt lat="38.146305" lon="128.452870">
        <ele>1106.819456</ele>
        <time>2026-08-02T14:18:20.638Z</time>
      </trkpt>
      <trkpt lat="38.146351" lon="128.452639">
        <ele>1111.009047</ele>
        <time>2026-08-02T14:19:18.068Z</time>
      </trkpt>
      <trkpt lat="38.146465" lon="128.452328">
        <ele>1117.041798</ele>
        <time>2026-08-02T14:20:52.197Z</time>
      </trkpt>
      <trkpt lat="38.146550" lon="128.451979">
        <ele>1123.465376</ele>
        <time>2026-08-02T14:22:48.577Z</time>
      </trkpt>
      <trkpt lat="38.146891" lon="128.451464">
        <ele>1136.271560</ele>
        <time>2026-08-02T14:27:05.858Z</time>
      </trkpt>
      <trkpt lat="38.147153" lon="128.450955">
        <ele>1148.638693</ele>
        <time>2026-08-02T14:30:49.422Z</time>
      </trkpt>
      <trkpt lat="38.147473" lon="128.450847">
        <ele>1157.197236</ele>
        <time>2026-08-02T14:32:55.165Z</time>
      </trkpt>
      <trkpt lat="38.147653" lon="128.450622">
        <ele>1163.722072</ele>
        <time>2026-08-02T14:34:07.694Z</time>
      </trkpt>
      <trkpt lat="38.147773" lon="128.450542">
        <ele>1167.224599</ele>
        <time>2026-08-02T14:34:36.878Z</time>
      </trkpt>
      <trkpt lat="38.148153" lon="128.450150">
        <ele>1171.575058</ele>
        <time>2026-08-02T14:35:43.178Z</time>
      </trkpt>
      <trkpt lat="38.148342" lon="128.450000">
        <ele>1166.168035</ele>
        <time>2026-08-02T14:36:23.085Z</time>
      </trkpt>
      <trkpt lat="38.148397" lon="128.449871">
        <ele>1163.367406</ele>
        <time>2026-08-02T14:36:48.453Z</time>
      </trkpt>
      <trkpt lat="38.148414" lon="128.449710">
        <ele>1160.267017</ele>
        <time>2026-08-02T14:37:19.315Z</time>
      </trkpt>
      <trkpt lat="38.148393" lon="128.449592">
        <ele>1157.957945</ele>
        <time>2026-08-02T14:37:44.370Z</time>
      </trkpt>
      <trkpt lat="38.148482" lon="128.449361">
        <ele>1153.048446</ele>
        <time>2026-08-02T14:38:39.794Z</time>
      </trkpt>
      <trkpt lat="38.148558" lon="128.449029">
        <ele>1146.448975</ele>
        <time>2026-08-02T14:39:56.512Z</time>
      </trkpt>
      <trkpt lat="38.148722" lon="128.448487">
        <ele>1135.365206</ele>
        <time>2026-08-02T14:42:05.175Z</time>
      </trkpt>
      <trkpt lat="38.148937" lon="128.448262">
        <ele>1130.051753</ele>
        <time>2026-08-02T14:43:20.218Z</time>
      </trkpt>
      <trkpt lat="38.149131" lon="128.448128">
        <ele>1127.014852</ele>
        <time>2026-08-02T14:44:14.626Z</time>
      </trkpt>
      <trkpt lat="38.149254" lon="128.447908">
        <ele>1124.094829</ele>
        <time>2026-08-02T14:45:01.734Z</time>
      </trkpt>
      <trkpt lat="38.149347" lon="128.447425">
        <ele>1118.715597</ele>
        <time>2026-08-02T14:46:15.542Z</time>
      </trkpt>
      <trkpt lat="38.149505" lon="128.447292">
        <ele>1116.109127</ele>
        <time>2026-08-02T14:46:47.553Z</time>
      </trkpt>
      <trkpt lat="38.150161" lon="128.446320">
        <ele>1114.392204</ele>
        <time>2026-08-02T14:49:11.209Z</time>
      </trkpt>
      <trkpt lat="38.150270" lon="128.445899">
        <ele>1121.363811</ele>
        <time>2026-08-02T14:50:32.160Z</time>
      </trkpt>
      <trkpt lat="38.150400" lon="128.445668">
        <ele>1125.831779</ele>
        <time>2026-08-02T14:51:32.590Z</time>
      </trkpt>
      <trkpt lat="38.150737" lon="128.445248">
        <ele>1135.269802</ele>
        <time>2026-08-02T14:54:04.049Z</time>
      </trkpt>
      <trkpt lat="38.150776" lon="128.445064">
        <ele>1138.267215</ele>
        <time>2026-08-02T14:54:59.233Z</time>
      </trkpt>
      <trkpt lat="38.150721" lon="128.444819">
        <ele>1142.274759</ele>
        <time>2026-08-02T14:56:16.102Z</time>
      </trkpt>
      <trkpt lat="38.150530" lon="128.444724">
        <ele>1147.797930</ele>
        <time>2026-08-02T14:57:38.325Z</time>
      </trkpt>
      <trkpt lat="38.150492" lon="128.444515">
        <ele>1152.669661</ele>
        <time>2026-08-02T14:58:47.156Z</time>
      </trkpt>
      <trkpt lat="38.150397" lon="128.444410">
        <ele>1156.304698</ele>
        <time>2026-08-02T14:59:38.827Z</time>
      </trkpt>
      <trkpt lat="38.150338" lon="128.444290">
        <ele>1159.518791</ele>
        <time>2026-08-02T15:00:24.518Z</time>
      </trkpt>
      <trkpt lat="38.150359" lon="128.444135">
        <ele>1163.090804</ele>
        <time>2026-08-02T15:01:14.477Z</time>
      </trkpt>
      <trkpt lat="38.150282" lon="128.444002">
        <ele>1166.841602</ele>
        <time>2026-08-02T15:02:06.090Z</time>
      </trkpt>
      <trkpt lat="38.150336" lon="128.443588">
        <ele>1176.372275</ele>
        <time>2026-08-02T15:04:11.216Z</time>
      </trkpt>
      <trkpt lat="38.150386" lon="128.443439">
        <ele>1180.051373</ele>
        <time>2026-08-02T15:04:56.024Z</time>
      </trkpt>
      <trkpt lat="38.150435" lon="128.443327">
        <ele>1182.962105</ele>
        <time>2026-08-02T15:05:29.895Z</time>
      </trkpt>
      <trkpt lat="38.150654" lon="128.443115">
        <ele>1190.910793</ele>
        <time>2026-08-02T15:06:52.323Z</time>
      </trkpt>
      <trkpt lat="38.150745" lon="128.442995">
        <ele>1194.696776</ele>
        <time>2026-08-02T15:07:25.542Z</time>
      </trkpt>
      <trkpt lat="38.150882" lon="128.442578">
        <ele>1194.587942</ele>
        <time>2026-08-02T15:08:34.308Z</time>
      </trkpt>
      <trkpt lat="38.150996" lon="128.442323">
        <ele>1194.228204</ele>
        <time>2026-08-02T15:09:09.793Z</time>
      </trkpt>
      <trkpt lat="38.151061" lon="128.442238">
        <ele>1194.082798</ele>
        <time>2026-08-02T15:09:22.512Z</time>
      </trkpt>
      <trkpt lat="38.151152" lon="128.442211">
        <ele>1193.937068</ele>
        <time>2026-08-02T15:09:35.707Z</time>
      </trkpt>
      <trkpt lat="38.151255" lon="128.442183">
        <ele>1193.772805</ele>
        <time>2026-08-02T15:09:51.259Z</time>
      </trkpt>
      <trkpt lat="38.151376" lon="128.442224">
        <ele>1193.577516</ele>
        <time>2026-08-02T15:10:10.468Z</time>
      </trkpt>
      <trkpt lat="38.151455" lon="128.442220">
        <ele>1193.454214</ele>
        <time>2026-08-02T15:10:22.773Z</time>
      </trkpt>
      <trkpt lat="38.151656" lon="128.442091">
        <ele>1193.103085</ele>
        <time>2026-08-02T15:10:59.492Z</time>
      </trkpt>
      <trkpt lat="38.151804" lon="128.442090">
        <ele>1192.872269</ele>
        <time>2026-08-02T15:11:24.196Z</time>
      </trkpt>
      <trkpt lat="38.151893" lon="128.442061">
        <ele>1192.728985</ele>
        <time>2026-08-02T15:11:39.825Z</time>
      </trkpt>
      <trkpt lat="38.152051" lon="128.441937">
        <ele>1192.439428</ele>
        <time>2026-08-02T15:12:11.515Z</time>
      </trkpt>
      <trkpt lat="38.152200" lon="128.441768">
        <ele>1191.732113</ele>
        <time>2026-08-02T15:12:46.032Z</time>
      </trkpt>
      <trkpt lat="38.152372" lon="128.441658">
        <ele>1190.793549</ele>
        <time>2026-08-02T15:13:18.910Z</time>
      </trkpt>
      <trkpt lat="38.152463" lon="128.441371">
        <ele>1189.607251</ele>
        <time>2026-08-02T15:14:00.013Z</time>
      </trkpt>
      <trkpt lat="38.152543" lon="128.441217">
        <ele>1188.899698</ele>
        <time>2026-08-02T15:14:23.818Z</time>
      </trkpt>
      <trkpt lat="38.152602" lon="128.441210">
        <ele>1188.610825</ele>
        <time>2026-08-02T15:14:33.386Z</time>
      </trkpt>
      <trkpt lat="38.152662" lon="128.441252">
        <ele>1188.276939</ele>
        <time>2026-08-02T15:14:44.312Z</time>
      </trkpt>
      <trkpt lat="38.152823" lon="128.441154">
        <ele>1187.406786</ele>
        <time>2026-08-02T15:15:12.064Z</time>
      </trkpt>
      <trkpt lat="38.152933" lon="128.441119">
        <ele>1186.854007</ele>
        <time>2026-08-02T15:15:28.967Z</time>
      </trkpt>
      <trkpt lat="38.153000" lon="128.441138">
        <ele>1186.519360</ele>
        <time>2026-08-02T15:15:38.906Z</time>
      </trkpt>
      <trkpt lat="38.153211" lon="128.441087">
        <ele>1185.472322</ele>
        <time>2026-08-02T15:16:08.690Z</time>
      </trkpt>
      <trkpt lat="38.153351" lon="128.441113">
        <ele>1184.782584</ele>
        <time>2026-08-02T15:16:29.130Z</time>
      </trkpt>
      <trkpt lat="38.153449" lon="128.441062">
        <ele>1184.266379</ele>
        <time>2026-08-02T15:16:45.352Z</time>
      </trkpt>
      <trkpt lat="38.153520" lon="128.440959">
        <ele>1183.741300</ele>
        <time>2026-08-02T15:17:02.749Z</time>
      </trkpt>
      <trkpt lat="38.153573" lon="128.440594">
        <ele>1187.609625</ele>
        <time>2026-08-02T15:17:54.645Z</time>
      </trkpt>
      <trkpt lat="38.153659" lon="128.440399">
        <ele>1190.446960</ele>
        <time>2026-08-02T15:18:30.692Z</time>
      </trkpt>
      <trkpt lat="38.153877" lon="128.440287">
        <ele>1194.241458</ele>
        <time>2026-08-02T15:19:25.657Z</time>
      </trkpt>
      <trkpt lat="38.153965" lon="128.440272">
        <ele>1195.674362</ele>
        <time>2026-08-02T15:19:47.799Z</time>
      </trkpt>
      <trkpt lat="38.154122" lon="128.440127">
        <ele>1198.805839</ele>
        <time>2026-08-02T15:20:39.648Z</time>
      </trkpt>
      <trkpt lat="38.154247" lon="128.440107">
        <ele>1200.839077</ele>
        <time>2026-08-02T15:21:14.881Z</time>
      </trkpt>
      <trkpt lat="38.154333" lon="128.440033">
        <ele>1202.514864</ele>
        <time>2026-08-02T15:21:44.295Z</time>
      </trkpt>
      <trkpt lat="38.154446" lon="128.439717">
        <ele>1206.920290</ele>
        <time>2026-08-02T15:23:02.472Z</time>
      </trkpt>
      <trkpt lat="38.154526" lon="128.439636">
        <ele>1208.570618</ele>
        <time>2026-08-02T15:23:31.406Z</time>
      </trkpt>
      <trkpt lat="38.154516" lon="128.439551">
        <ele>1209.661325</ele>
        <time>2026-08-02T15:23:50.321Z</time>
      </trkpt>
      <trkpt lat="38.154594" lon="128.439464">
        <ele>1211.335725</ele>
        <time>2026-08-02T15:24:18.751Z</time>
      </trkpt>
      <trkpt lat="38.154672" lon="128.439435">
        <ele>1212.611345</ele>
        <time>2026-08-02T15:24:40.357Z</time>
      </trkpt>
      <trkpt lat="38.154706" lon="128.439313">
        <ele>1213.452819</ele>
        <time>2026-08-02T15:25:06.977Z</time>
      </trkpt>
      <trkpt lat="38.154809" lon="128.439185">
        <ele>1214.643450</ele>
        <time>2026-08-02T15:25:42.907Z</time>
      </trkpt>
      <trkpt lat="38.154818" lon="128.439067">
        <ele>1215.414180</ele>
        <time>2026-08-02T15:26:04.820Z</time>
      </trkpt>
      <trkpt lat="38.154859" lon="128.438970">
        <ele>1216.130115</ele>
        <time>2026-08-02T15:26:24.792Z</time>
      </trkpt>
      <trkpt lat="38.154850" lon="128.438869">
        <ele>1216.790929</ele>
        <time>2026-08-02T15:26:42.309Z</time>
      </trkpt>
      <trkpt lat="38.155021" lon="128.438790">
        <ele>1218.295069</ele>
        <time>2026-08-02T15:27:19.718Z</time>
      </trkpt>
      <trkpt lat="38.155167" lon="128.438649">
        <ele>1219.810731</ele>
        <time>2026-08-02T15:27:44.816Z</time>
      </trkpt>
      <trkpt lat="38.155285" lon="128.438655">
        <ele>1220.787075</ele>
        <time>2026-08-02T15:28:00.120Z</time>
      </trkpt>
      <trkpt lat="38.155499" lon="128.438502">
        <ele>1222.816749</ele>
        <time>2026-08-02T15:28:30.015Z</time>
      </trkpt>
      <trkpt lat="38.155673" lon="128.438294">
        <ele>1224.791058</ele>
        <time>2026-08-02T15:28:56.176Z</time>
      </trkpt>
      <trkpt lat="38.155714" lon="128.438072">
        <ele>1226.273557</ele>
        <time>2026-08-02T15:29:14.432Z</time>
      </trkpt>
      <trkpt lat="38.155813" lon="128.437941">
        <ele>1227.432539</ele>
        <time>2026-08-02T15:29:29.740Z</time>
      </trkpt>
      <trkpt lat="38.155904" lon="128.437765">
        <ele>1225.990319</ele>
        <time>2026-08-02T15:29:48.219Z</time>
      </trkpt>
      <trkpt lat="38.156108" lon="128.437633">
        <ele>1223.997312</ele>
        <time>2026-08-02T15:30:14.885Z</time>
      </trkpt>
      <trkpt lat="38.156352" lon="128.437632">
        <ele>1221.872705</ele>
        <time>2026-08-02T15:30:44.362Z</time>
      </trkpt>
      <trkpt lat="38.156460" lon="128.437708">
        <ele>1220.797942</ele>
        <time>2026-08-02T15:30:59.469Z</time>
      </trkpt>
      <trkpt lat="38.156590" lon="128.437952">
        <ele>1218.779945</ele>
        <time>2026-08-02T15:31:28.455Z</time>
      </trkpt>
      <trkpt lat="38.156945" lon="128.438162">
        <ele>1215.370792</ele>
        <time>2026-08-02T15:32:17.577Z</time>
      </trkpt>
      <trkpt lat="38.157050" lon="128.438150">
        <ele>1214.452835</ele>
        <time>2026-08-02T15:32:30.625Z</time>
      </trkpt>
      <trkpt lat="38.157132" lon="128.438237">
        <ele>1213.522985</ele>
        <time>2026-08-02T15:32:43.737Z</time>
      </trkpt>
      <trkpt lat="38.157233" lon="128.438265">
        <ele>1212.622889</ele>
        <time>2026-08-02T15:32:56.289Z</time>
      </trkpt>
      <trkpt lat="38.157413" lon="128.438223">
        <ele>1211.976155</ele>
        <time>2026-08-02T15:33:17.916Z</time>
      </trkpt>
      <trkpt lat="38.157637" lon="128.438114">
        <ele>1212.513177</ele>
        <time>2026-08-02T15:33:44.430Z</time>
      </trkpt>
      <trkpt lat="38.157708" lon="128.438037">
        <ele>1212.722109</ele>
        <time>2026-08-02T15:33:54.252Z</time>
      </trkpt>
      <trkpt lat="38.157841" lon="128.438000">
        <ele>1213.026952</ele>
        <time>2026-08-02T15:34:08.040Z</time>
      </trkpt>
      <trkpt lat="38.157976" lon="128.438003">
        <ele>1213.329278</ele>
        <time>2026-08-02T15:34:23.109Z</time>
      </trkpt>
      <trkpt lat="38.158009" lon="128.437936">
        <ele>1213.468471</ele>
        <time>2026-08-02T15:34:30.431Z</time>
      </trkpt>
      <trkpt lat="38.158066" lon="128.437894">
        <ele>1213.615975</ele>
        <time>2026-08-02T15:34:38.621Z</time>
      </trkpt>
      <trkpt lat="38.158091" lon="128.437899">
        <ele>1213.672641</ele>
        <time>2026-08-02T15:34:41.737Z</time>
      </trkpt>
      <trkpt lat="38.158283" lon="128.437937">
        <ele>1214.107724</ele>
        <time>2026-08-02T15:35:06.601Z</time>
      </trkpt>
      <trkpt lat="38.158390" lon="128.437916">
        <ele>1214.350145</ele>
        <time>2026-08-02T15:35:21.254Z</time>
      </trkpt>
      <trkpt lat="38.158795" lon="128.437801">
        <ele>1215.279312</ele>
        <time>2026-08-02T15:36:16.978Z</time>
      </trkpt>
      <trkpt lat="38.158912" lon="128.437743">
        <ele>1215.560486</ele>
        <time>2026-08-02T15:36:32.352Z</time>
      </trkpt>
      <trkpt lat="38.158954" lon="128.437689">
        <ele>1215.694213</ele>
        <time>2026-08-02T15:36:39.692Z</time>
      </trkpt>
      <trkpt lat="38.159022" lon="128.437679">
        <ele>1215.627180</ele>
        <time>2026-08-02T15:36:47.564Z</time>
      </trkpt>
      <trkpt lat="38.159091" lon="128.437712">
        <ele>1214.825980</ele>
        <time>2026-08-02T15:36:56.166Z</time>
      </trkpt>
      <trkpt lat="38.159166" lon="128.437898">
        <ele>1213.039626</ele>
        <time>2026-08-02T15:37:13.971Z</time>
      </trkpt>
      <trkpt lat="38.159242" lon="128.437972">
        <ele>1211.999335</ele>
        <time>2026-08-02T15:37:23.633Z</time>
      </trkpt>
      <trkpt lat="38.159328" lon="128.438035">
        <ele>1210.920674</ele>
        <time>2026-08-02T15:37:36.179Z</time>
      </trkpt>
      <trkpt lat="38.159442" lon="128.438060">
        <ele>1209.663381</ele>
        <time>2026-08-02T15:37:51.398Z</time>
      </trkpt>
      <trkpt lat="38.159461" lon="128.438152">
        <ele>1208.850498</ele>
        <time>2026-08-02T15:38:01.615Z</time>
      </trkpt>
      <trkpt lat="38.159542" lon="128.438247">
        <ele>1207.652951</ele>
        <time>2026-08-02T15:38:17.085Z</time>
      </trkpt>
      <trkpt lat="38.159574" lon="128.438420">
        <ele>1206.134167</ele>
        <time>2026-08-02T15:38:37.580Z</time>
      </trkpt>
      <trkpt lat="38.159649" lon="128.438633">
        <ele>1204.139727</ele>
        <time>2026-08-02T15:39:05.856Z</time>
      </trkpt>
      <trkpt lat="38.159699" lon="128.438687">
        <ele>1203.426798</ele>
        <time>2026-08-02T15:39:16.454Z</time>
      </trkpt>
      <trkpt lat="38.159811" lon="128.438918">
        <ele>1201.107587</ele>
        <time>2026-08-02T15:39:53.018Z</time>
      </trkpt>
      <trkpt lat="38.159981" lon="128.439030">
        <ele>1199.026751</ele>
        <time>2026-08-02T15:40:30.222Z</time>
      </trkpt>
      <trkpt lat="38.160061" lon="128.439126">
        <ele>1197.831327</ele>
        <time>2026-08-02T15:40:53.687Z</time>
      </trkpt>
      <trkpt lat="38.160358" lon="128.439196">
        <ele>1191.204759</ele>
        <time>2026-08-02T15:42:01.821Z</time>
      </trkpt>
      <trkpt lat="38.160492" lon="128.439443">
        <ele>1183.634307</ele>
        <time>2026-08-02T15:42:56.012Z</time>
      </trkpt>
      <trkpt lat="38.160613" lon="128.439554">
        <ele>1178.847559</ele>
        <time>2026-08-02T15:43:31.252Z</time>
      </trkpt>
      <trkpt lat="38.160722" lon="128.439716">
        <ele>1173.468651</ele>
        <time>2026-08-02T15:44:12.411Z</time>
      </trkpt>
      <trkpt lat="38.160752" lon="128.439815">
        <ele>1170.792083</ele>
        <time>2026-08-02T15:44:33.511Z</time>
      </trkpt>
      <trkpt lat="38.160798" lon="128.439866">
        <ele>1168.834136</ele>
        <time>2026-08-02T15:44:48.841Z</time>
      </trkpt>
      <trkpt lat="38.160766" lon="128.439991">
        <ele>1165.517788</ele>
        <time>2026-08-02T15:45:15.339Z</time>
      </trkpt>
      <trkpt lat="38.160842" lon="128.440087">
        <ele>1162.081060</ele>
        <time>2026-08-02T15:45:42.866Z</time>
      </trkpt>
      <trkpt lat="38.160899" lon="128.440351">
        <ele>1155.174520</ele>
        <time>2026-08-02T15:46:39.373Z</time>
      </trkpt>
      <trkpt lat="38.160988" lon="128.440628">
        <ele>1147.625645</ele>
        <time>2026-08-02T15:47:42.299Z</time>
      </trkpt>
      <trkpt lat="38.161110" lon="128.440707">
        <ele>1143.233197</ele>
        <time>2026-08-02T15:48:19.288Z</time>
      </trkpt>
      <trkpt lat="38.161175" lon="128.440849">
        <ele>1139.088094</ele>
        <time>2026-08-02T15:48:54.053Z</time>
      </trkpt>
      <trkpt lat="38.161231" lon="128.440888">
        <ele>1137.290788</ele>
        <time>2026-08-02T15:49:10.940Z</time>
      </trkpt>
      <trkpt lat="38.161268" lon="128.440978">
        <ele>1135.153954</ele>
        <time>2026-08-02T15:49:31.912Z</time>
      </trkpt>
      <trkpt lat="38.160955" lon="128.441381">
        <ele>1123.235551</ele>
        <time>2026-08-02T15:51:19.923Z</time>
      </trkpt>
      <trkpt lat="38.160953" lon="128.441483">
        <ele>1121.088779</ele>
        <time>2026-08-02T15:51:38.024Z</time>
      </trkpt>
      <trkpt lat="38.161099" lon="128.441608">
        <ele>1116.379156</ele>
        <time>2026-08-02T15:52:17.100Z</time>
      </trkpt>
      <trkpt lat="38.161142" lon="128.441675">
        <ele>1114.559479</ele>
        <time>2026-08-02T15:52:31.922Z</time>
      </trkpt>
      <trkpt lat="38.161307" lon="128.441791">
        <ele>1109.514529</ele>
        <time>2026-08-02T15:53:11.034Z</time>
      </trkpt>
      <trkpt lat="38.161382" lon="128.441944">
        <ele>1105.721023</ele>
        <time>2026-08-02T15:53:39.035Z</time>
      </trkpt>
      <trkpt lat="38.161425" lon="128.442104">
        <ele>1102.163390</ele>
        <time>2026-08-02T15:54:04.304Z</time>
      </trkpt>
      <trkpt lat="38.161543" lon="128.442342">
        <ele>1096.243436</ele>
        <time>2026-08-02T15:54:45.904Z</time>
      </trkpt>
      <trkpt lat="38.161587" lon="128.442529">
        <ele>1092.136551</ele>
        <time>2026-08-02T15:55:14.400Z</time>
      </trkpt>
      <trkpt lat="38.161698" lon="128.442652">
        <ele>1088.303703</ele>
        <time>2026-08-02T15:55:41.332Z</time>
      </trkpt>
      <trkpt lat="38.161743" lon="128.442906">
        <ele>1083.088166</ele>
        <time>2026-08-02T15:56:18.357Z</time>
      </trkpt>
      <trkpt lat="38.161726" lon="128.443275">
        <ele>1075.683904</ele>
        <time>2026-08-02T15:57:11.734Z</time>
      </trkpt>
      <trkpt lat="38.161644" lon="128.443718">
        <ele>1066.567403</ele>
        <time>2026-08-02T15:58:22.863Z</time>
      </trkpt>
      <trkpt lat="38.161512" lon="128.444101">
        <ele>1058.190692</ele>
        <time>2026-08-02T15:59:34.631Z</time>
      </trkpt>
      <trkpt lat="38.161497" lon="128.444316">
        <ele>1053.867007</ele>
        <time>2026-08-02T16:00:13.760Z</time>
      </trkpt>
      <trkpt lat="38.161395" lon="128.444542">
        <ele>1048.647095</ele>
        <time>2026-08-02T16:01:02.591Z</time>
      </trkpt>
      <trkpt lat="38.161417" lon="128.444687">
        <ele>1045.688946</ele>
        <time>2026-08-02T16:01:30.888Z</time>
      </trkpt>
      <trkpt lat="38.161385" lon="128.444885">
        <ele>1040.824385</ele>
        <time>2026-08-02T16:02:10.341Z</time>
      </trkpt>
      <trkpt lat="38.161317" lon="128.445021">
        <ele>1036.706439</ele>
        <time>2026-08-02T16:02:42.137Z</time>
      </trkpt>
      <trkpt lat="38.161347" lon="128.445174">
        <ele>1032.677493</ele>
        <time>2026-08-02T16:03:13.617Z</time>
      </trkpt>
      <trkpt lat="38.161304" lon="128.445257">
        <ele>1030.137845</ele>
        <time>2026-08-02T16:03:33.339Z</time>
      </trkpt>
      <trkpt lat="38.161251" lon="128.445281">
        <ele>1028.309666</ele>
        <time>2026-08-02T16:03:47.531Z</time>
      </trkpt>
      <trkpt lat="38.161181" lon="128.445268">
        <ele>1026.010847</ele>
        <time>2026-08-02T16:04:05.469Z</time>
      </trkpt>
      <trkpt lat="38.161124" lon="128.445340">
        <ele>1023.400270</ele>
        <time>2026-08-02T16:04:25.982Z</time>
      </trkpt>
      <trkpt lat="38.161044" lon="128.445372">
        <ele>1020.675075</ele>
        <time>2026-08-02T16:04:47.027Z</time>
      </trkpt>
      <trkpt lat="38.161013" lon="128.445514">
        <ele>1016.909639</ele>
        <time>2026-08-02T16:05:16.512Z</time>
      </trkpt>
      <trkpt lat="38.160909" lon="128.445777">
        <ele>1009.387857</ele>
        <time>2026-08-02T16:06:14.925Z</time>
      </trkpt>
      <trkpt lat="38.160917" lon="128.445888">
        <ele>1006.539847</ele>
        <time>2026-08-02T16:06:37.149Z</time>
      </trkpt>
      <trkpt lat="38.160998" lon="128.446056">
        <ele>1001.504592</ele>
        <time>2026-08-02T16:07:15.800Z</time>
      </trkpt>
      <trkpt lat="38.160975" lon="128.446221">
        <ele>997.223004</ele>
        <time>2026-08-02T16:07:48.591Z</time>
      </trkpt>
      <trkpt lat="38.161048" lon="128.446368">
        <ele>992.780671</ele>
        <time>2026-08-02T16:08:22.076Z</time>
      </trkpt>
      <trkpt lat="38.161047" lon="128.446565">
        <ele>987.747101</ele>
        <time>2026-08-02T16:08:59.722Z</time>
      </trkpt>
      <trkpt lat="38.161005" lon="128.446730">
        <ele>983.773906</ele>
        <time>2026-08-02T16:09:32.580Z</time>
      </trkpt>
      <trkpt lat="38.161085" lon="128.447031">
        <ele>976.967191</ele>
        <time>2026-08-02T16:10:31.751Z</time>
      </trkpt>
      <trkpt lat="38.161175" lon="128.447127">
        <ele>973.766792</ele>
        <time>2026-08-02T16:10:59.248Z</time>
      </trkpt>
      <trkpt lat="38.161197" lon="128.447389">
        <ele>968.122094</ele>
        <time>2026-08-02T16:11:46.690Z</time>
      </trkpt>
      <trkpt lat="38.161383" lon="128.448026">
        <ele>953.565161</ele>
        <time>2026-08-02T16:13:44.769Z</time>
      </trkpt>
      <trkpt lat="38.161395" lon="128.448212">
        <ele>949.567134</ele>
        <time>2026-08-02T16:14:15.825Z</time>
      </trkpt>
      <trkpt lat="38.161355" lon="128.448501">
        <ele>943.280761</ele>
        <time>2026-08-02T16:15:02.968Z</time>
      </trkpt>
      <trkpt lat="38.161370" lon="128.448807">
        <ele>936.859434</ele>
        <time>2026-08-02T16:15:50.263Z</time>
      </trkpt>
      <trkpt lat="38.161482" lon="128.449026">
        <ele>933.160406</ele>
        <time>2026-08-02T16:16:31.185Z</time>
      </trkpt>
      <trkpt lat="38.161550" lon="128.449060">
        <ele>931.844651</ele>
        <time>2026-08-02T16:16:45.823Z</time>
      </trkpt>
      <trkpt lat="38.161626" lon="128.449148">
        <ele>929.993837</ele>
        <time>2026-08-02T16:17:06.982Z</time>
      </trkpt>
      <trkpt lat="38.161650" lon="128.449298">
        <ele>927.826468</ele>
        <time>2026-08-02T16:17:30.424Z</time>
      </trkpt>
      <trkpt lat="38.161716" lon="128.449393">
        <ele>926.031519</ele>
        <time>2026-08-02T16:17:49.289Z</time>
      </trkpt>
      <trkpt lat="38.161810" lon="128.449413">
        <ele>924.315270</ele>
        <time>2026-08-02T16:18:07.190Z</time>
      </trkpt>
      <trkpt lat="38.162051" lon="128.449801">
        <ele>917.314232</ele>
        <time>2026-08-02T16:19:16.046Z</time>
      </trkpt>
      <trkpt lat="38.162070" lon="128.449917">
        <ele>915.636545</ele>
        <time>2026-08-02T16:19:31.687Z</time>
      </trkpt>
      <trkpt lat="38.162025" lon="128.450263">
        <ele>910.671010</ele>
        <time>2026-08-02T16:20:16.164Z</time>
      </trkpt>
      <trkpt lat="38.162104" lon="128.450465">
        <ele>907.476651</ele>
        <time>2026-08-02T16:20:44.015Z</time>
      </trkpt>
      <trkpt lat="38.162192" lon="128.450538">
        <ele>905.584687</ele>
        <time>2026-08-02T16:21:00.204Z</time>
      </trkpt>
      <trkpt lat="38.162412" lon="128.450530">
        <ele>904.454938</ele>
        <time>2026-08-02T16:21:33.917Z</time>
      </trkpt>
      <trkpt lat="38.162467" lon="128.450606">
        <ele>904.314444</ele>
        <time>2026-08-02T16:21:46.093Z</time>
      </trkpt>
      <trkpt lat="38.162566" lon="128.450650">
        <ele>904.133026</ele>
        <time>2026-08-02T16:22:01.546Z</time>
      </trkpt>
      <trkpt lat="38.162689" lon="128.450852">
        <ele>903.785514</ele>
        <time>2026-08-02T16:22:30.546Z</time>
      </trkpt>
      <trkpt lat="38.162706" lon="128.450955">
        <ele>903.642364</ele>
        <time>2026-08-02T16:22:41.681Z</time>
      </trkpt>
      <trkpt lat="38.162817" lon="128.451197">
        <ele>903.261289</ele>
        <time>2026-08-02T16:23:09.297Z</time>
      </trkpt>
      <trkpt lat="38.162959" lon="128.451180">
        <ele>903.014555</ele>
        <time>2026-08-02T16:23:28.076Z</time>
      </trkpt>
      <trkpt lat="38.163143" lon="128.451250">
        <ele>902.682316</ele>
        <time>2026-08-02T16:23:54.105Z</time>
      </trkpt>
      <trkpt lat="38.163228" lon="128.451354">
        <ele>902.478278</ele>
        <time>2026-08-02T16:24:10.875Z</time>
      </trkpt>
      <trkpt lat="38.163270" lon="128.451517">
        <ele>902.244971</ele>
        <time>2026-08-02T16:24:30.605Z</time>
      </trkpt>
      <trkpt lat="38.163344" lon="128.451647">
        <ele>902.026676</ele>
        <time>2026-08-02T16:24:49.239Z</time>
      </trkpt>
      <trkpt lat="38.163458" lon="128.451677">
        <ele>901.825288</ele>
        <time>2026-08-02T16:25:06.690Z</time>
      </trkpt>
      <trkpt lat="38.163546" lon="128.451759">
        <ele>901.630234</ele>
        <time>2026-08-02T16:25:22.836Z</time>
      </trkpt>
      <trkpt lat="38.163681" lon="128.451946">
        <ele>901.011398</ele>
        <time>2026-08-02T16:25:52.243Z</time>
      </trkpt>
      <trkpt lat="38.163746" lon="128.452080">
        <ele>900.627599</ele>
        <time>2026-08-02T16:26:10.431Z</time>
      </trkpt>
      <trkpt lat="38.163725" lon="128.452352">
        <ele>899.961384</ele>
        <time>2026-08-02T16:26:41.762Z</time>
      </trkpt>
      <trkpt lat="38.163758" lon="128.452450">
        <ele>899.701513</ele>
        <time>2026-08-02T16:26:53.852Z</time>
      </trkpt>
      <trkpt lat="38.163840" lon="128.452552">
        <ele>899.345917</ele>
        <time>2026-08-02T16:27:09.601Z</time>
      </trkpt>
      <trkpt lat="38.163961" lon="128.452610">
        <ele>898.945025</ele>
        <time>2026-08-02T16:27:26.660Z</time>
      </trkpt>
      <trkpt lat="38.164048" lon="128.452687">
        <ele>898.616420</ele>
        <time>2026-08-02T16:27:40.289Z</time>
      </trkpt>
      <trkpt lat="38.164132" lon="128.452940">
        <ele>897.946980</ele>
        <time>2026-08-02T16:28:08.815Z</time>
      </trkpt>
      <trkpt lat="38.164183" lon="128.453018">
        <ele>897.699694</ele>
        <time>2026-08-02T16:28:19.813Z</time>
      </trkpt>
      <trkpt lat="38.164226" lon="128.453180">
        <ele>897.282911</ele>
        <time>2026-08-02T16:28:39.045Z</time>
      </trkpt>
      <trkpt lat="38.164286" lon="128.453204">
        <ele>897.087911</ele>
        <time>2026-08-02T16:28:48.252Z</time>
      </trkpt>
      <trkpt lat="38.164345" lon="128.453255">
        <ele>896.866748</ele>
        <time>2026-08-02T16:28:58.790Z</time>
      </trkpt>
      <trkpt lat="38.164404" lon="128.453358">
        <ele>896.556112</ele>
        <time>2026-08-02T16:29:14.093Z</time>
      </trkpt>
      <trkpt lat="38.164591" lon="128.453495">
        <ele>894.288948</ele>
        <time>2026-08-02T16:29:48.581Z</time>
      </trkpt>
      <trkpt lat="38.164904" lon="128.453540">
        <ele>884.699537</ele>
        <time>2026-08-02T16:30:47.080Z</time>
      </trkpt>
      <trkpt lat="38.165021" lon="128.453635">
        <ele>880.473744</ele>
        <time>2026-08-02T16:31:16.281Z</time>
      </trkpt>
      <trkpt lat="38.165136" lon="128.453682">
        <ele>876.796470</ele>
        <time>2026-08-02T16:31:43.237Z</time>
      </trkpt>
      <trkpt lat="38.165293" lon="128.453838">
        <ele>870.731270</ele>
        <time>2026-08-02T16:32:30.556Z</time>
      </trkpt>
      <trkpt lat="38.165428" lon="128.454057">
        <ele>864.070358</ele>
        <time>2026-08-02T16:33:26.179Z</time>
      </trkpt>
      <trkpt lat="38.165534" lon="128.454266">
        <ele>858.117351</ele>
        <time>2026-08-02T16:34:18.508Z</time>
      </trkpt>
      <trkpt lat="38.165639" lon="128.454563">
        <ele>850.322947</ele>
        <time>2026-08-02T16:35:29.665Z</time>
      </trkpt>
      <trkpt lat="38.165723" lon="128.454756">
        <ele>845.042862</ele>
        <time>2026-08-02T16:36:19.550Z</time>
      </trkpt>
      <trkpt lat="38.165703" lon="128.454799">
        <ele>843.847034</ele>
        <time>2026-08-02T16:36:30.875Z</time>
      </trkpt>
      <trkpt lat="38.165704" lon="128.454889">
        <ele>841.692644</ele>
        <time>2026-08-02T16:36:51.662Z</time>
      </trkpt>
      <trkpt lat="38.165757" lon="128.454972">
        <ele>838.592276</ele>
        <time>2026-08-02T16:37:16.200Z</time>
      </trkpt>
      <trkpt lat="38.165751" lon="128.455058">
        <ele>836.012486</ele>
        <time>2026-08-02T16:37:36.237Z</time>
      </trkpt>
      <trkpt lat="38.165657" lon="128.455096">
        <ele>832.263960</ele>
        <time>2026-08-02T16:38:05.223Z</time>
      </trkpt>
      <trkpt lat="38.165655" lon="128.455168">
        <ele>830.111245</ele>
        <time>2026-08-02T16:38:21.843Z</time>
      </trkpt>
      <trkpt lat="38.165707" lon="128.455344">
        <ele>824.493270</ele>
        <time>2026-08-02T16:39:05.425Z</time>
      </trkpt>
      <trkpt lat="38.165674" lon="128.455405">
        <ele>822.280786</ele>
        <time>2026-08-02T16:39:22.438Z</time>
      </trkpt>
      <trkpt lat="38.165746" lon="128.455595">
        <ele>815.978531</ele>
        <time>2026-08-02T16:40:10.607Z</time>
      </trkpt>
      <trkpt lat="38.165924" lon="128.455913">
        <ele>804.314563</ele>
        <time>2026-08-02T16:41:36.799Z</time>
      </trkpt>
      <trkpt lat="38.165951" lon="128.456012">
        <ele>801.183518</ele>
        <time>2026-08-02T16:41:59.310Z</time>
      </trkpt>
      <trkpt lat="38.165926" lon="128.456088">
        <ele>798.721886</ele>
        <time>2026-08-02T16:42:16.904Z</time>
      </trkpt>
      <trkpt lat="38.165926" lon="128.456224">
        <ele>794.658197</ele>
        <time>2026-08-02T16:42:45.642Z</time>
      </trkpt>
      <trkpt lat="38.165967" lon="128.456383">
        <ele>789.658269</ele>
        <time>2026-08-02T16:43:20.490Z</time>
      </trkpt>
      <trkpt lat="38.165942" lon="128.456475">
        <ele>786.749743</ele>
        <time>2026-08-02T16:43:40.561Z</time>
      </trkpt>
      <trkpt lat="38.165929" lon="128.456700">
        <ele>780.008598</ele>
        <time>2026-08-02T16:44:26.482Z</time>
      </trkpt>
      <trkpt lat="38.165896" lon="128.456813">
        <ele>776.406752</ele>
        <time>2026-08-02T16:44:50.541Z</time>
      </trkpt>
      <trkpt lat="38.165935" lon="128.456870">
        <ele>774.148963</ele>
        <time>2026-08-02T16:45:05.559Z</time>
      </trkpt>
      <trkpt lat="38.165925" lon="128.456947">
        <ele>772.019625</ele>
        <time>2026-08-02T16:45:21.045Z</time>
      </trkpt>
      <trkpt lat="38.165971" lon="128.457066">
        <ele>768.762664</ele>
        <time>2026-08-02T16:45:46.951Z</time>
      </trkpt>
      <trkpt lat="38.165959" lon="128.457193">
        <ele>765.620928</ele>
        <time>2026-08-02T16:46:11.826Z</time>
      </trkpt>
      <trkpt lat="38.166020" lon="128.457338">
        <ele>761.581758</ele>
        <time>2026-08-02T16:46:43.354Z</time>
      </trkpt>
      <trkpt lat="38.166063" lon="128.457605">
        <ele>754.887721</ele>
        <time>2026-08-02T16:47:34.441Z</time>
      </trkpt>
      <trkpt lat="38.166030" lon="128.457918">
        <ele>747.131217</ele>
        <time>2026-08-02T16:48:32.466Z</time>
      </trkpt>
      <trkpt lat="38.165956" lon="128.458038">
        <ele>743.385415</ele>
        <time>2026-08-02T16:49:00.120Z</time>
      </trkpt>
      <trkpt lat="38.165927" lon="128.458147">
        <ele>740.559097</ele>
        <time>2026-08-02T16:49:21.020Z</time>
      </trkpt>
      <trkpt lat="38.165928" lon="128.458244">
        <ele>738.176441</ele>
        <time>2026-08-02T16:49:38.416Z</time>
      </trkpt>
      <trkpt lat="38.165895" lon="128.458307">
        <ele>736.317111</ele>
        <time>2026-08-02T16:49:52.000Z</time>
      </trkpt>
      <trkpt lat="38.165913" lon="128.458401">
        <ele>733.940852</ele>
        <time>2026-08-02T16:50:09.474Z</time>
      </trkpt>
      <trkpt lat="38.165831" lon="128.458625">
        <ele>727.871976</ele>
        <time>2026-08-02T16:50:54.214Z</time>
      </trkpt>
      <trkpt lat="38.165837" lon="128.458727">
        <ele>725.359713</ele>
        <time>2026-08-02T16:51:12.843Z</time>
      </trkpt>
      <trkpt lat="38.165797" lon="128.458863">
        <ele>721.793287</ele>
        <time>2026-08-02T16:51:39.663Z</time>
      </trkpt>
      <trkpt lat="38.165760" lon="128.458896">
        <ele>720.381558</ele>
        <time>2026-08-02T16:51:50.390Z</time>
      </trkpt>
      <trkpt lat="38.165739" lon="128.459038">
        <ele>716.832675</ele>
        <time>2026-08-02T16:52:17.631Z</time>
      </trkpt>
      <trkpt lat="38.165608" lon="128.459255">
        <ele>708.760130</ele>
        <time>2026-08-02T16:53:10.496Z</time>
      </trkpt>
      <trkpt lat="38.165517" lon="128.459566">
        <ele>698.952451</ele>
        <time>2026-08-02T16:54:17.381Z</time>
      </trkpt>
      <trkpt lat="38.165529" lon="128.459637">
        <ele>696.806070</ele>
        <time>2026-08-02T16:54:32.378Z</time>
      </trkpt>
      <trkpt lat="38.165452" lon="128.459753">
        <ele>692.319132</ele>
        <time>2026-08-02T16:55:04.039Z</time>
      </trkpt>
      <trkpt lat="38.165469" lon="128.459859">
        <ele>689.121729</ele>
        <time>2026-08-02T16:55:26.875Z</time>
      </trkpt>
      <trkpt lat="38.165391" lon="128.460048">
        <ele>682.812938</ele>
        <time>2026-08-02T16:56:12.870Z</time>
      </trkpt>
      <trkpt lat="38.165470" lon="128.460210">
        <ele>677.178734</ele>
        <time>2026-08-02T16:56:55.005Z</time>
      </trkpt>
      <trkpt lat="38.165542" lon="128.460289">
        <ele>673.604197</ele>
        <time>2026-08-02T16:57:22.009Z</time>
      </trkpt>
      <trkpt lat="38.165537" lon="128.460408">
        <ele>670.082071</ele>
        <time>2026-08-02T16:57:48.917Z</time>
      </trkpt>
      <trkpt lat="38.165486" lon="128.460498">
        <ele>666.803182</ele>
        <time>2026-08-02T16:58:14.112Z</time>
      </trkpt>
      <trkpt lat="38.165565" lon="128.460603">
        <ele>662.507841</ele>
        <time>2026-08-02T16:58:47.446Z</time>
      </trkpt>
      <trkpt lat="38.165604" lon="128.460710">
        <ele>659.022102</ele>
        <time>2026-08-02T16:59:14.379Z</time>
      </trkpt>
      <trkpt lat="38.165568" lon="128.460767">
        <ele>656.861200</ele>
        <time>2026-08-02T16:59:31.178Z</time>
      </trkpt>
      <trkpt lat="38.165622" lon="128.460868">
        <ele>653.251281</ele>
        <time>2026-08-02T16:59:59.389Z</time>
      </trkpt>
      <trkpt lat="38.165667" lon="128.461039">
        <ele>647.781010</ele>
        <time>2026-08-02T17:00:40.852Z</time>
      </trkpt>
      <trkpt lat="38.165667" lon="128.461158">
        <ele>643.861886</ele>
        <time>2026-08-02T17:01:08.426Z</time>
      </trkpt>
      <trkpt lat="38.165563" lon="128.461158">
        <ele>639.505490</ele>
        <time>2026-08-02T17:01:38.923Z</time>
      </trkpt>
      <trkpt lat="38.165489" lon="128.461266">
        <ele>634.787476</ele>
        <time>2026-08-02T17:02:11.818Z</time>
      </trkpt>
      <trkpt lat="38.165535" lon="128.461346">
        <ele>631.523350</ele>
        <time>2026-08-02T17:02:34.430Z</time>
      </trkpt>
      <trkpt lat="38.165581" lon="128.461563">
        <ele>624.121498</ele>
        <time>2026-08-02T17:03:25.325Z</time>
      </trkpt>
      <trkpt lat="38.165583" lon="128.461779">
        <ele>617.007291</ele>
        <time>2026-08-02T17:04:13.314Z</time>
      </trkpt>
      <trkpt lat="38.165623" lon="128.461901">
        <ele>612.653995</ele>
        <time>2026-08-02T17:04:42.560Z</time>
      </trkpt>
      <trkpt lat="38.165638" lon="128.462120">
        <ele>605.414168</ele>
        <time>2026-08-02T17:05:31.429Z</time>
      </trkpt>
      <trkpt lat="38.165619" lon="128.462196">
        <ele>602.787709</ele>
        <time>2026-08-02T17:05:49.148Z</time>
      </trkpt>
      <trkpt lat="38.165538" lon="128.462224">
        <ele>599.271667</ele>
        <time>2026-08-02T17:06:13.218Z</time>
      </trkpt>
      <trkpt lat="38.165462" lon="128.462138">
        <ele>595.010587</ele>
        <time>2026-08-02T17:06:42.326Z</time>
      </trkpt>
      <trkpt lat="38.165402" lon="128.462184">
        <ele>592.075998</ele>
        <time>2026-08-02T17:07:02.584Z</time>
      </trkpt>
      <trkpt lat="38.165336" lon="128.462150">
        <ele>589.093204</ele>
        <time>2026-08-02T17:07:22.966Z</time>
      </trkpt>
      <trkpt lat="38.165307" lon="128.462079">
        <ele>586.458179</ele>
        <time>2026-08-02T17:07:41.440Z</time>
      </trkpt>
      <trkpt lat="38.165264" lon="128.462055">
        <ele>584.491180</ele>
        <time>2026-08-02T17:07:55.297Z</time>
      </trkpt>
      <trkpt lat="38.165235" lon="128.462106">
        <ele>582.418302</ele>
        <time>2026-08-02T17:08:09.751Z</time>
      </trkpt>
      <trkpt lat="38.165258" lon="128.462154">
        <ele>580.567022</ele>
        <time>2026-08-02T17:08:22.922Z</time>
      </trkpt>
      <trkpt lat="38.165234" lon="128.462242">
        <ele>577.499418</ele>
        <time>2026-08-02T17:08:44.674Z</time>
      </trkpt>
      <trkpt lat="38.165163" lon="128.462297">
        <ele>574.017148</ele>
        <time>2026-08-02T17:09:09.881Z</time>
      </trkpt>
      <trkpt lat="38.164922" lon="128.462329">
        <ele>562.013688</ele>
        <time>2026-08-02T17:10:25.000Z</time>
      </trkpt>
      <trkpt lat="38.164862" lon="128.462281">
        <ele>558.491079</ele>
        <time>2026-08-02T17:10:47.914Z</time>
      </trkpt>
      <trkpt lat="38.164815" lon="128.462288">
        <ele>556.139369</ele>
        <time>2026-08-02T17:11:03.268Z</time>
      </trkpt>
      <trkpt lat="38.164850" lon="128.462369">
        <ele>552.527946</ele>
        <time>2026-08-02T17:11:26.847Z</time>
      </trkpt>
      <trkpt lat="38.164825" lon="128.462468">
        <ele>548.465050</ele>
        <time>2026-08-02T17:11:53.709Z</time>
      </trkpt>
      <trkpt lat="38.164711" lon="128.462610">
        <ele>540.535213</ele>
        <time>2026-08-02T17:12:46.528Z</time>
      </trkpt>
      <trkpt lat="38.164689" lon="128.462737">
        <ele>535.453860</ele>
        <time>2026-08-02T17:13:20.256Z</time>
      </trkpt>
      <trkpt lat="38.164653" lon="128.462814">
        <ele>531.953450</ele>
        <time>2026-08-02T17:13:43.819Z</time>
      </trkpt>
      <trkpt lat="38.164626" lon="128.462859">
        <ele>529.741636</ele>
        <time>2026-08-02T17:13:58.673Z</time>
      </trkpt>
      <trkpt lat="38.164511" lon="128.462861">
        <ele>524.025968</ele>
        <time>2026-08-02T17:14:37.210Z</time>
      </trkpt>
      <trkpt lat="38.164420" lon="128.462964">
        <ele>517.972086</ele>
        <time>2026-08-02T17:15:18.174Z</time>
      </trkpt>
      <trkpt lat="38.164403" lon="128.463109">
        <ele>512.243760</ele>
        <time>2026-08-02T17:15:57.640Z</time>
      </trkpt>
      <trkpt lat="38.164289" lon="128.463241">
        <ele>504.582210</ele>
        <time>2026-08-02T17:16:50.576Z</time>
      </trkpt>
      <trkpt lat="38.164277" lon="128.463341">
        <ele>500.629588</ele>
        <time>2026-08-02T17:17:18.345Z</time>
      </trkpt>
      <trkpt lat="38.164231" lon="128.463398">
        <ele>497.437962</ele>
        <time>2026-08-02T17:17:40.354Z</time>
      </trkpt>
      <trkpt lat="38.164174" lon="128.463605">
        <ele>488.867988</ele>
        <time>2026-08-02T17:18:40.026Z</time>
      </trkpt>
      <trkpt lat="38.164175" lon="128.463732">
        <ele>483.928360</ele>
        <time>2026-08-02T17:19:14.540Z</time>
      </trkpt>
      <trkpt lat="38.164142" lon="128.463859">
        <ele>478.933969</ele>
        <time>2026-08-02T17:19:50.793Z</time>
      </trkpt>
      <trkpt lat="38.164023" lon="128.463832">
        <ele>473.193302</ele>
        <time>2026-08-02T17:20:32.030Z</time>
      </trkpt>
      <trkpt lat="38.163916" lon="128.463728">
        <ele>466.797801</ele>
        <time>2026-08-02T17:21:18.201Z</time>
      </trkpt>
      <trkpt lat="38.163803" lon="128.464047">
        <ele>453.733330</ele>
        <time>2026-08-02T17:22:50.074Z</time>
      </trkpt>
      <trkpt lat="38.163605" lon="128.464272">
        <ele>441.123585</ele>
        <time>2026-08-02T17:24:15.849Z</time>
      </trkpt>
      <trkpt lat="38.163608" lon="128.464363">
        <ele>437.722669</ele>
        <time>2026-08-02T17:24:38.476Z</time>
      </trkpt>
      <trkpt lat="38.163525" lon="128.464402">
        <ele>433.520504</ele>
        <time>2026-08-02T17:25:06.459Z</time>
      </trkpt>
      <trkpt lat="38.163496" lon="128.464638">
        <ele>424.601303</ele>
        <time>2026-08-02T17:26:05.154Z</time>
      </trkpt>
      <trkpt lat="38.163464" lon="128.464725">
        <ele>421.014830</ele>
        <time>2026-08-02T17:26:28.851Z</time>
      </trkpt>
      <trkpt lat="38.163407" lon="128.464741">
        <ele>418.242691</ele>
        <time>2026-08-02T17:26:47.013Z</time>
      </trkpt>
      <trkpt lat="38.163382" lon="128.464845">
        <ele>414.181888</ele>
        <time>2026-08-02T17:27:13.291Z</time>
      </trkpt>
      <trkpt lat="38.163321" lon="128.464849">
        <ele>411.281080</ele>
        <time>2026-08-02T17:27:32.335Z</time>
      </trkpt>
      <trkpt lat="38.163266" lon="128.464783">
        <ele>407.689967</ele>
        <time>2026-08-02T17:27:55.522Z</time>
      </trkpt>
      <trkpt lat="38.163244" lon="128.464955">
        <ele>401.183045</ele>
        <time>2026-08-02T17:28:36.606Z</time>
      </trkpt>
      <trkpt lat="38.163219" lon="128.465021">
        <ele>398.642467</ele>
        <time>2026-08-02T17:28:53.622Z</time>
      </trkpt>
      <trkpt lat="38.163157" lon="128.465081">
        <ele>396.239211</ele>
        <time>2026-08-02T17:29:16.384Z</time>
      </trkpt>
      <trkpt lat="38.163105" lon="128.465043">
        <ele>394.389200</ele>
        <time>2026-08-02T17:29:33.794Z</time>
      </trkpt>
      <trkpt lat="38.163042" lon="128.465097">
        <ele>392.045651</ele>
        <time>2026-08-02T17:29:55.300Z</time>
      </trkpt>
      <trkpt lat="38.162895" lon="128.465080">
        <ele>387.492324</ele>
        <time>2026-08-02T17:30:36.388Z</time>
      </trkpt>
      <trkpt lat="38.162707" lon="128.465214">
        <ele>380.844333</ele>
        <time>2026-08-02T17:31:33.499Z</time>
      </trkpt>
      <trkpt lat="38.162586" lon="128.465376">
        <ele>375.424850</ele>
        <time>2026-08-02T17:32:17.289Z</time>
      </trkpt>
      <trkpt lat="38.162540" lon="128.465588">
        <ele>370.090717</ele>
        <time>2026-08-02T17:32:59.550Z</time>
      </trkpt>
      <trkpt lat="38.162566" lon="128.465801">
        <ele>364.862646</ele>
        <time>2026-08-02T17:33:40.722Z</time>
      </trkpt>
      <trkpt lat="38.162651" lon="128.466085">
        <ele>357.492229</ele>
        <time>2026-08-02T17:34:34.504Z</time>
      </trkpt>
      <trkpt lat="38.162649" lon="128.466195">
        <ele>354.823537</ele>
        <time>2026-08-02T17:34:52.509Z</time>
      </trkpt>
      <trkpt lat="38.162683" lon="128.466288">
        <ele>352.335967</ele>
        <time>2026-08-02T17:35:09.001Z</time>
      </trkpt>
      <trkpt lat="38.162784" lon="128.466310">
        <ele>349.174981</ele>
        <time>2026-08-02T17:35:28.546Z</time>
      </trkpt>
      <trkpt lat="38.162784" lon="128.466468">
        <ele>345.342800</ele>
        <time>2026-08-02T17:35:51.335Z</time>
      </trkpt>
      <trkpt lat="38.162913" lon="128.466582">
        <ele>342.357093</ele>
        <time>2026-08-02T17:36:12.893Z</time>
      </trkpt>
      <trkpt lat="38.162922" lon="128.466896">
        <ele>339.425778</ele>
        <time>2026-08-02T17:36:44.876Z</time>
      </trkpt>
      <trkpt lat="38.162935" lon="128.466927">
        <ele>339.098009</ele>
        <time>2026-08-02T17:36:48.465Z</time>
      </trkpt>
      <trkpt lat="38.163199" lon="128.466906">
        <ele>335.959441</ele>
        <time>2026-08-02T17:37:20.880Z</time>
      </trkpt>
      <trkpt lat="38.163485" lon="128.467052">
        <ele>332.302812</ele>
        <time>2026-08-02T17:37:57.861Z</time>
      </trkpt>
      <trkpt lat="38.163572" lon="128.467126">
        <ele>331.060959</ele>
        <time>2026-08-02T17:38:10.520Z</time>
      </trkpt>
      <trkpt lat="38.163661" lon="128.467341">
        <ele>328.794191</ele>
        <time>2026-08-02T17:38:33.376Z</time>
      </trkpt>
      <trkpt lat="38.163786" lon="128.467748">
        <ele>324.717850</ele>
        <time>2026-08-02T17:39:12.808Z</time>
      </trkpt>
      <trkpt lat="38.163905" lon="128.467827">
        <ele>323.125105</ele>
        <time>2026-08-02T17:39:27.887Z</time>
      </trkpt>
      <trkpt lat="38.164068" lon="128.467870">
        <ele>321.330026</ele>
        <time>2026-08-02T17:39:47.027Z</time>
      </trkpt>
      <trkpt lat="38.164256" lon="128.467680">
        <ele>318.979962</ele>
        <time>2026-08-02T17:40:15.058Z</time>
      </trkpt>
      <trkpt lat="38.164337" lon="128.467681">
        <ele>318.187193</ele>
        <time>2026-08-02T17:40:24.610Z</time>
      </trkpt>
      <trkpt lat="38.164401" lon="128.467746">
        <ele>317.385642</ele>
        <time>2026-08-02T17:40:34.370Z</time>
      </trkpt>
      <trkpt lat="38.164583" lon="128.468138">
        <ele>313.882632</ele>
        <time>2026-08-02T17:41:17.447Z</time>
      </trkpt>
      <trkpt lat="38.164690" lon="128.468293">
        <ele>312.295461</ele>
        <time>2026-08-02T17:41:37.335Z</time>
      </trkpt>
      <trkpt lat="38.164861" lon="128.468453">
        <ele>310.217839</ele>
        <time>2026-08-02T17:42:03.457Z</time>
      </trkpt>
      <trkpt lat="38.164947" lon="128.468664">
        <ele>308.389056</ele>
        <time>2026-08-02T17:42:26.007Z</time>
      </trkpt>
      <trkpt lat="38.165198" lon="128.469153">
        <ele>303.973811</ele>
        <time>2026-08-02T17:43:20.947Z</time>
      </trkpt>
      <trkpt lat="38.165171" lon="128.469316">
        <ele>302.839782</ele>
        <time>2026-08-02T17:43:36.583Z</time>
      </trkpt>
      <trkpt lat="38.165260" lon="128.469488">
        <ele>301.438010</ele>
        <time>2026-08-02T17:43:55.927Z</time>
      </trkpt>
      <trkpt lat="38.165357" lon="128.469778">
        <ele>299.292524</ele>
        <time>2026-08-02T17:44:25.539Z</time>
      </trkpt>
      <trkpt lat="38.165551" lon="128.470039">
        <ele>296.847361</ele>
        <time>2026-08-02T17:44:59.140Z</time>
      </trkpt>
      <trkpt lat="38.165729" lon="128.470169">
        <ele>295.070086</ele>
        <time>2026-08-02T17:45:23.445Z</time>
      </trkpt>
      <trkpt lat="38.165865" lon="128.470380">
        <ele>293.212655</ele>
        <time>2026-08-02T17:45:48.585Z</time>
      </trkpt>
      <trkpt lat="38.165972" lon="128.470448">
        <ele>292.176955</ele>
        <time>2026-08-02T17:46:02.521Z</time>
      </trkpt>
      <trkpt lat="38.166213" lon="128.470787">
        <ele>289.065598</ele>
        <time>2026-08-02T17:46:43.740Z</time>
      </trkpt>
      <trkpt lat="38.166295" lon="128.470857">
        <ele>288.540899</ele>
        <time>2026-08-02T17:46:54.905Z</time>
      </trkpt>
      <trkpt lat="38.166900" lon="128.471383">
        <ele>284.846931</ele>
        <time>2026-08-02T17:48:15.400Z</time>
      </trkpt>
      <trkpt lat="38.167286" lon="128.471979">
        <ele>281.786776</ele>
        <time>2026-08-02T17:49:20.480Z</time>
      </trkpt>
      <trkpt lat="38.167540" lon="128.472197">
        <ele>280.242234</ele>
        <time>2026-08-02T17:49:54.000Z</time>
      </trkpt>
      <trkpt lat="38.167815" lon="128.472347">
        <ele>277.990504</ele>
        <time>2026-08-02T17:50:27.464Z</time>
      </trkpt>
      <trkpt lat="38.168011" lon="128.472623">
        <ele>275.604116</ele>
        <time>2026-08-02T17:51:00.812Z</time>
      </trkpt>
      <trkpt lat="38.168146" lon="128.472929">
        <ele>273.352710</ele>
        <time>2026-08-02T17:51:32.854Z</time>
      </trkpt>
      <trkpt lat="38.168268" lon="128.473103">
        <ele>271.856784</ele>
        <time>2026-08-02T17:51:54.375Z</time>
      </trkpt>
      <trkpt lat="38.168447" lon="128.473152">
        <ele>270.362479</ele>
        <time>2026-08-02T17:52:16.071Z</time>
      </trkpt>
      <trkpt lat="38.168714" lon="128.473105">
        <ele>268.162670</ele>
        <time>2026-08-02T17:52:48.170Z</time>
      </trkpt>
      <trkpt lat="38.168820" lon="128.473148">
        <ele>267.254652</ele>
        <time>2026-08-02T17:53:01.458Z</time>
      </trkpt>
      <trkpt lat="38.168974" lon="128.473310">
        <ele>265.623690</ele>
        <time>2026-08-02T17:53:25.422Z</time>
      </trkpt>
      <trkpt lat="38.169304" lon="128.473386">
        <ele>262.763241</ele>
        <time>2026-08-02T17:54:05.616Z</time>
      </trkpt>
      <trkpt lat="38.169477" lon="128.473390">
        <ele>261.277530</ele>
        <time>2026-08-02T17:54:26.395Z</time>
      </trkpt>
      <trkpt lat="38.169806" lon="128.473268">
        <ele>258.334968</ele>
        <time>2026-08-02T17:55:07.908Z</time>
      </trkpt>
      <trkpt lat="38.170049" lon="128.473254">
        <ele>256.246307</ele>
        <time>2026-08-02T17:55:37.172Z</time>
      </trkpt>
      <trkpt lat="38.170446" lon="128.473352">
        <ele>252.773863</ele>
        <time>2026-08-02T17:56:24.374Z</time>
      </trkpt>
      <trkpt lat="38.170918" lon="128.473477">
        <ele>249.410652</ele>
        <time>2026-08-02T17:57:18.717Z</time>
      </trkpt>
      <trkpt lat="38.171932" lon="128.473939">
        <ele>246.260698</ele>
        <time>2026-08-02T17:59:11.417Z</time>
      </trkpt>
      <trkpt lat="38.172224" lon="128.474169">
        <ele>245.256271</ele>
        <time>2026-08-02T17:59:46.165Z</time>
      </trkpt>
      <trkpt lat="38.172301" lon="128.474235">
        <ele>244.984729</ele>
        <time>2026-08-02T17:59:55.720Z</time>
      </trkpt>
      <trkpt lat="38.172916" lon="128.474887">
        <ele>241.764367</ele>
        <time>2026-08-02T18:01:21.575Z</time>
      </trkpt>
      <trkpt lat="38.173054" lon="128.475159">
        <ele>240.677243</ele>
        <time>2026-08-02T18:01:49.872Z</time>
      </trkpt>
      <trkpt lat="38.173172" lon="128.475530">
        <ele>239.333261</ele>
        <time>2026-08-02T18:02:24.999Z</time>
      </trkpt>
      <trkpt lat="38.173228" lon="128.475765">
        <ele>238.508635</ele>
        <time>2026-08-02T18:02:46.491Z</time>
      </trkpt>
      <trkpt lat="38.173557" lon="128.476363">
        <ele>236.200711</ele>
        <time>2026-08-02T18:03:49.354Z</time>
      </trkpt>
      <trkpt lat="38.173720" lon="128.476712">
        <ele>235.078195</ele>
        <time>2026-08-02T18:04:23.695Z</time>
      </trkpt>
      <trkpt lat="38.173904" lon="128.477193">
        <ele>233.599034</ele>
        <time>2026-08-02T18:05:08.189Z</time>
      </trkpt>
      <trkpt lat="38.173893" lon="128.477414">
        <ele>232.986705</ele>
        <time>2026-08-02T18:05:26.568Z</time>
      </trkpt>
      <trkpt lat="38.173820" lon="128.477641">
        <ele>232.308521</ele>
        <time>2026-08-02T18:05:47.050Z</time>
      </trkpt>
      <trkpt lat="38.173555" lon="128.478046">
        <ele>230.851462</ele>
        <time>2026-08-02T18:06:31.189Z</time>
      </trkpt>
      <trkpt lat="38.173510" lon="128.478281">
        <ele>230.130859</ele>
        <time>2026-08-02T18:06:51.659Z</time>
      </trkpt>
      <trkpt lat="38.173389" lon="128.478510">
        <ele>229.257880</ele>
        <time>2026-08-02T18:07:15.057Z</time>
      </trkpt>
      <trkpt lat="38.173378" lon="128.479029">
        <ele>227.615220</ele>
        <time>2026-08-02T18:07:59.446Z</time>
      </trkpt>
      <trkpt lat="38.173527" lon="128.479388">
        <ele>226.330803</ele>
        <time>2026-08-02T18:08:34.185Z</time>
      </trkpt>
      <trkpt lat="38.173557" lon="128.479607">
        <ele>225.627470</ele>
        <time>2026-08-02T18:08:53.214Z</time>
      </trkpt>
      <trkpt lat="38.173536" lon="128.480119">
        <ele>224.005354</ele>
        <time>2026-08-02T18:09:37.035Z</time>
      </trkpt>
      <trkpt lat="38.173612" lon="128.480309">
        <ele>223.330873</ele>
        <time>2026-08-02T18:09:55.190Z</time>
      </trkpt>
      <trkpt lat="38.173812" lon="128.480551">
        <ele>222.413587</ele>
        <time>2026-08-02T18:10:25.028Z</time>
      </trkpt>
      <trkpt lat="38.173935" lon="128.480957">
        <ele>221.283081</ele>
        <time>2026-08-02T18:11:01.787Z</time>
      </trkpt>
      <trkpt lat="38.173945" lon="128.481179">
        <ele>220.705326</ele>
        <time>2026-08-02T18:11:20.521Z</time>
      </trkpt>
      <trkpt lat="38.173772" lon="128.481809">
        <ele>218.971444</ele>
        <time>2026-08-02T18:12:16.368Z</time>
      </trkpt>
      <trkpt lat="38.173690" lon="128.482519">
        <ele>217.105096</ele>
        <time>2026-08-02T18:13:16.025Z</time>
      </trkpt>
      <trkpt lat="38.173715" lon="128.483334">
        <ele>214.970805</ele>
        <time>2026-08-02T18:14:24.055Z</time>
      </trkpt>
      <trkpt lat="38.173854" lon="128.483692">
        <ele>213.925974</ele>
        <time>2026-08-02T18:14:57.670Z</time>
      </trkpt>
      <trkpt lat="38.173901" lon="128.484008">
        <ele>213.084407</ele>
        <time>2026-08-02T18:15:24.868Z</time>
      </trkpt>
      <trkpt lat="38.173972" lon="128.484205">
        <ele>212.517314</ele>
        <time>2026-08-02T18:15:43.233Z</time>
      </trkpt>
      <trkpt lat="38.173953" lon="128.484424">
        <ele>211.940764</ele>
        <time>2026-08-02T18:16:02.118Z</time>
      </trkpt>
      <trkpt lat="38.174025" lon="128.484962">
        <ele>210.848062</ele>
        <time>2026-08-02T18:16:48.405Z</time>
      </trkpt>
      <trkpt lat="38.174082" lon="128.485177">
        <ele>210.486224</ele>
        <time>2026-08-02T18:17:07.412Z</time>
      </trkpt>
      <trkpt lat="38.174296" lon="128.485388">
        <ele>209.936974</ele>
        <time>2026-08-02T18:17:35.964Z</time>
      </trkpt>
      <trkpt lat="38.174297" lon="128.485445">
        <ele>209.846052</ele>
        <time>2026-08-02T18:17:40.800Z</time>
      </trkpt>
      <trkpt lat="38.174238" lon="128.485629">
        <ele>209.529154</ele>
        <time>2026-08-02T18:17:57.225Z</time>
      </trkpt>
      <trkpt lat="38.174108" lon="128.486243">
        <ele>208.515104</ele>
        <time>2026-08-02T18:18:49.014Z</time>
      </trkpt>
      <trkpt lat="38.174099" lon="128.486283">
        <ele>208.448754</ele>
        <time>2026-08-02T18:18:52.375Z</time>
      </trkpt>
      <trkpt lat="38.174050" lon="128.486509">
        <ele>208.074891</ele>
        <time>2026-08-02T18:19:10.982Z</time>
      </trkpt>
      <trkpt lat="38.173857" lon="128.486867">
        <ele>207.578029</ele>
        <time>2026-08-02T18:19:45.314Z</time>
      </trkpt>
      <trkpt lat="38.173792" lon="128.487528">
        <ele>207.126094</ele>
        <time>2026-08-02T18:20:38.984Z</time>
      </trkpt>
      <trkpt lat="38.173842" lon="128.487902">
        <ele>206.868719</ele>
        <time>2026-08-02T18:21:08.956Z</time>
      </trkpt>
      <trkpt lat="38.173847" lon="128.488138">
        <ele>206.708552</ele>
        <time>2026-08-02T18:21:27.865Z</time>
      </trkpt>
      <trkpt lat="38.173802" lon="128.488701">
        <ele>206.324629</ele>
        <time>2026-08-02T18:22:13.878Z</time>
      </trkpt>
      <trkpt lat="38.173746" lon="128.489089">
        <ele>205.776769</ele>
        <time>2026-08-02T18:22:46.493Z</time>
      </trkpt>
      <trkpt lat="38.173677" lon="128.489459">
        <ele>204.881809</ele>
        <time>2026-08-02T18:23:18.243Z</time>
      </trkpt>
      <trkpt lat="38.173529" lon="128.489945">
        <ele>203.655189</ele>
        <time>2026-08-02T18:24:02.329Z</time>
      </trkpt>
      <trkpt lat="38.173429" lon="128.490138">
        <ele>203.111179</ele>
        <time>2026-08-02T18:24:22.008Z</time>
      </trkpt>
      <trkpt lat="38.173372" lon="128.490521">
        <ele>202.193775</ele>
        <time>2026-08-02T18:24:55.011Z</time>
      </trkpt>
      <trkpt lat="38.173308" lon="128.490945">
        <ele>201.177659</ele>
        <time>2026-08-02T18:25:31.184Z</time>
      </trkpt>
      <trkpt lat="38.173309" lon="128.491301">
        <ele>200.785829</ele>
        <time>2026-08-02T18:26:00.354Z</time>
      </trkpt>
      <trkpt lat="38.173309" lon="128.491460">
        <ele>200.785829</ele>
        <time>2026-08-02T18:26:13.326Z</time>
      </trkpt>
      <trkpt lat="38.173254" lon="128.491896">
        <ele>200.785829</ele>
        <time>2026-08-02T18:26:49.255Z</time>
      </trkpt>
      <trkpt lat="38.173070" lon="128.492571">
        <ele>200.785829</ele>
        <time>2026-08-02T18:27:46.781Z</time>
      </trkpt>
      <trkpt lat="38.172979" lon="128.492789">
        <ele>200.785829</ele>
        <time>2026-08-02T18:28:06.515Z</time>
      </trkpt>
      <trkpt lat="38.172932" lon="128.492943">
        <ele>200.785829</ele>
        <time>2026-08-02T18:28:19.628Z</time>
      </trkpt>
    </trkseg>
  </trk>
</gpx>